{
  "type": "FeatureCollection",
  "generator": "overpass-turbo",
  "copyright": "The data included in this document is from www.openstreetmap.org. The data is made available under ODbL.",
  "timestamp": "2026-09-22T08:45:51Z",
  "features": [
    {
      "type": "Feature",
      "properties": {
        "@id": "way/9702618",
        "HFCS": "Urban Principal Arterial",
        "NHS": "yes",
        "NJDOT_SRI": "00000001",
        "destination": "Palisades Park",
        "destination:ref": "US 1 South;US 9 South",
        "destination:ref:to": "US 46",
        "hgv": "designated",
        "hgv:state_network": "yes",
        "highway": "motorway",
        "junction:ref": "72B",
        "lanes": "1",
        "maxheight": "14'4\"",
        "maxspeed": "55 mph",
        "maxspeed:variable": "yes",
        "oneway": "yes",
        "ref": "US 1;US 9;US 46",
        "source:hgv:state_network": "NJDOT http://www.state.nj.us/transportation/about/rules/pdf/chapter32truckaccess.pdf",
        "surface": "asphalt",
        "toll": "no"
      },
      "geometry": {
        "type": "LineString",
        "coordinates": [
          [
            -73.9725496,
            40.8566795
          ],
          [
            -73.9727863,
            40.8569216
          ],
          [
            -73.9728771,
            40.8569863
          ],
          [
            -73.9729619,
            40.85705
          ],
          [
            -73.9730463,
            40.8571177
          ],
          [
            -73.9731529,
            40.8572066
          ],
          [
            -73.9732758,
            40.8573384
          ]
        ]
      },
      "id": "way/9702618"
    },
    {
      "type": "Feature",
      "properties": {
        "@id": "way/9702623",
        "HFCS": "Urban Principal Arterial",
        "NHS": "yes",
        "NJDOT_SRI": "00000001",
        "embankment": "yes",
        "expressway": "yes",
        "hgv": "designated",
        "hgv:state_network": "yes",
        "highway": "motorway",
        "lanes": "3",
        "maxspeed": "45 mph",
        "oneway": "yes",
        "ref": "US 1;US 9;US 46",
        "source:hgv:state_network": "NJDOT http://www.state.nj.us/transportation/about/rules/pdf/chapter32truckaccess.pdf",
        "surface": "asphalt",
        "tiger:name_base_2": "United States Highway 46"
      },
      "geometry": {
        "type": "LineString",
        "coordinates": [
          [
            -73.9904364,
            40.8464592
          ],
          [
            -73.988483,
            40.8484038
          ],
          [
            -73.9882974,
            40.848588
          ]
        ]
      },
      "id": "way/9702623"
    },
    {
      "type": "Feature",
      "properties": {
        "@id": "way/27251826",
        "HFCS": "Urban Principal Arterial",
        "NHS": "yes",
        "NJDOT_SRI": "00000001",
        "bridge": "yes",
        "expressway": "yes",
        "hgv": "designated",
        "hgv:state_network": "yes",
        "highway": "motorway",
        "lanes": "2",
        "layer": "1",
        "maxspeed": "45 mph",
        "name": "Bergen Boulevard",
        "oneway": "yes",
        "ref": "US 1;US 9;US 46",
        "source:hgv:state_network": "NJDOT http://www.state.nj.us/transportation/about/rules/pdf/chapter32truckaccess.pdf",
        "surface": "concrete",
        "tiger:cfcc": "A25",
        "tiger:county": "Bergen, NJ",
        "tiger:name_base": "Bergen",
        "tiger:name_base_1": "United States Highway 9",
        "tiger:name_base_2": "United States Highway 46",
        "tiger:name_base_3": "United States Highway 1",
        "tiger:name_type": "Blvd",
        "toll": "no"
      },
      "geometry": {
        "type": "LineString",
        "coordinates": [
          [
            -73.9757431,
            40.8589625
          ],
          [
            -73.9758166,
            40.8589666
          ],
          [
            -73.9758887,
            40.8589686
          ],
          [
            -73.9759562,
            40.8589685
          ],
          [
            -73.9760331,
            40.8589661
          ],
          [
            -73.9761081,
            40.8589615
          ],
          [
            -73.9761836,
            40.8589547
          ],
          [
            -73.9762536,
            40.8589468
          ],
          [
            -73.9763308,
            40.8589345
          ],
          [
            -73.9764061,
            40.8589196
          ],
          [
            -73.9764758,
            40.8589044
          ],
          [
            -73.9765453,
            40.8588885
          ],
          [
            -73.9765993,
            40.8588755
          ]
        ]
      },
      "id": "way/27251826"
    },
    {
      "type": "Feature",
      "properties": {
        "@id": "way/27258108",
        "HFCS": "Urban Principal Arterial",
        "NHS": "yes",
        "NJDOT_SRI": "00000001",
        "embankment": "yes",
        "expressway": "yes",
        "hgv": "designated",
        "hgv:state_network": "yes",
        "highway": "motorway",
        "lanes": "2",
        "maxspeed": "45 mph",
        "oneway": "yes",
        "ref": "US 1;US 9;US 46",
        "source:hgv:state_network": "NJDOT http://www.state.nj.us/transportation/about/rules/pdf/chapter32truckaccess.pdf",
        "surface": "asphalt",
        "tiger:name_base_2": "United States Highway 46"
      },
      "geometry": {
        "type": "LineString",
        "coordinates": [
          [
            -73.9907074,
            40.8463317
          ],
          [
            -73.9919227,
            40.8451269
          ]
        ]
      },
      "id": "way/27258108"
    },
    {
      "type": "Feature",
      "properties": {
        "@id": "way/27274350",
        "HFCS": "Urban Principal Arterial",
        "NHS": "yes",
        "NJDOT_SRI": "00000001",
        "bridge": "yes",
        "hgv": "designated",
        "hgv:state_network": "yes",
        "highway": "motorway",
        "lanes": "2",
        "layer": "1",
        "oneway": "yes",
        "ref": "US 1;US 9;US 46",
        "source:hgv:state_network": "NJDOT http://www.state.nj.us/transportation/about/rules/pdf/chapter32truckaccess.pdf",
        "surface": "concrete",
        "toll": "no"
      },
      "geometry": {
        "type": "LineString",
        "coordinates": [
          [
            -73.9744837,
            40.8584882
          ],
          [
            -73.974506,
            40.8585053
          ],
          [
            -73.9745494,
            40.8585391
          ],
          [
            -73.9746122,
            40.858584
          ],
          [
            -73.9746629,
            40.8586181
          ],
          [
            -73.9747179,
            40.8586517
          ],
          [
            -73.97478,
            40.8586868
          ],
          [
            -73.9748427,
            40.8587198
          ],
          [
            -73.9749062,
            40.8587507
          ],
          [
            -73.9749649,
            40.8587776
          ],
          [
            -73.9750305,
            40.8588048
          ],
          [
            -73.9750956,
            40.8588296
          ],
          [
            -73.9751618,
            40.8588518
          ],
          [
            -73.9752285,
            40.8588718
          ],
          [
            -73.9753023,
            40.8588914
          ],
          [
            -73.9753725,
            40.8589085
          ],
          [
            -73.9754462,
            40.8589233
          ],
          [
            -73.9755171,
            40.858936
          ]
        ]
      },
      "id": "way/27274350"
    },
    {
      "type": "Feature",
      "properties": {
        "@id": "way/27274351",
        "HFCS": "Urban Principal Arterial",
        "NHS": "yes",
        "NJDOT_SRI": "00000001",
        "expressway": "yes",
        "hgv": "designated",
        "hgv:state_network": "yes",
        "highway": "motorway",
        "lanes": "2",
        "maxspeed": "45 mph",
        "name": "Bergen Boulevard",
        "oneway": "yes",
        "ref": "US 1;US 9;US 46",
        "source:hgv:state_network": "NJDOT http://www.state.nj.us/transportation/about/rules/pdf/chapter32truckaccess.pdf",
        "surface": "asphalt",
        "tiger:cfcc": "A25",
        "tiger:county": "Bergen, NJ",
        "tiger:name_base": "Bergen",
        "tiger:name_base_1": "United States Highway 9",
        "tiger:name_base_2": "United States Highway 46",
        "tiger:name_base_3": "United States Highway 1",
        "tiger:name_type": "Blvd",
        "toll": "no"
      },
      "geometry": {
        "type": "LineString",
        "coordinates": [
          [
            -73.9765993,
            40.8588755
          ],
          [
            -73.9766867,
            40.8588531
          ],
          [
            -73.976832,
            40.8588094
          ],
          [
            -73.9769767,
            40.8587608
          ],
          [
            -73.9771185,
            40.8587115
          ]
        ]
      },
      "id": "way/27274351"
    },
    {
      "type": "Feature",
      "properties": {
        "@id": "way/27274353",
        "HFCS": "Urban Principal Arterial",
        "NHS": "yes",
        "NJDOT_SRI": "00000001",
        "destination:lanes": "George Washington Bridge Upper Level|George Washington Bridge Lower Level",
        "hgv": "designated",
        "hgv:state_network": "yes",
        "highway": "motorway",
        "lanes": "2",
        "lit": "yes",
        "maxheight:signed": "no",
        "maxspeed": "45 mph",
        "oneway": "yes",
        "ref": "US 1;US 9;US 46",
        "source:hgv:state_network": "NJDOT http://www.state.nj.us/transportation/about/rules/pdf/chapter32truckaccess.pdf",
        "surface": "asphalt",
        "toll": "no",
        "turn:lanes": "slight_left|slight_right"
      },
      "geometry": {
        "type": "LineString",
        "coordinates": [
          [
            -73.9751279,
            40.857861
          ],
          [
            -73.9744717,
            40.8575105
          ]
        ]
      },
      "id": "way/27274353"
    },
    {
      "type": "Feature",
      "properties": {
        "@id": "way/27274354",
        "HFCS": "Urban Principal Arterial",
        "NHS": "yes",
        "NJDOT_SRI": "00000001",
        "bridge": "yes",
        "hgv": "designated",
        "hgv:state_network": "yes",
        "highway": "motorway",
        "lanes": "2",
        "layer": "2",
        "lit": "yes",
        "maxspeed": "45 mph",
        "oneway": "yes",
        "ref": "US 1;US 9;US 46",
        "source:hgv:state_network": "NJDOT http://www.state.nj.us/transportation/about/rules/pdf/chapter32truckaccess.pdf",
        "toll": "no"
      },
      "geometry": {
        "type": "LineString",
        "coordinates": [
          [
            -73.9770895,
            40.8583965
          ],
          [
            -73.9769451,
            40.8583821
          ],
          [
            -73.9768023,
            40.8583638
          ],
          [
            -73.976661,
            40.8583436
          ],
          [
            -73.9765181,
            40.8583206
          ],
          [
            -73.9763814,
            40.8582923
          ],
          [
            -73.9762431,
            40.8582625
          ],
          [
            -73.976099,
            40.858227
          ],
          [
            -73.9759661,
            40.8581893
          ],
          [
            -73.9758367,
            40.8581515
          ],
          [
            -73.9757026,
            40.8581076
          ],
          [
            -73.9755724,
            40.8580583
          ]
        ]
      },
      "id": "way/27274354"
    },
    {
      "type": "Feature",
      "properties": {
        "@id": "way/42502900",
        "HFCS": "Urban Principal Arterial",
        "NHS": "yes",
        "NJDOT_SRI": "00000001",
        "destination:lanes": "|Main Street;Fort Lee;Leonia",
        "expressway": "yes",
        "hgv": "designated",
        "hgv:state_network": "yes",
        "highway": "motorway",
        "lanes": "2",
        "name": "Bergen Boulevard",
        "oneway": "yes",
        "ref": "US 1;US 9;US 46",
        "source:hgv:state_network": "NJDOT http://www.state.nj.us/transportation/about/rules/pdf/chapter32truckaccess.pdf",
        "tiger:cfcc": "A25",
        "tiger:county": "Bergen, NJ",
        "tiger:name_base": "Bergen",
        "tiger:name_base_1": "United States Highway 9",
        "tiger:name_base_2": "United States Highway 46",
        "tiger:name_base_3": "United States Highway 1",
        "tiger:name_type": "Blvd",
        "tiger:reviewed": "no",
        "turn:lanes": "none|through;slight_right"
      },
      "geometry": {
        "type": "LineString",
        "coordinates": [
          [
            -73.9786541,
            40.858424
          ],
          [
            -73.9788065,
            40.8584099
          ]
        ]
      },
      "id": "way/42502900"
    },
    {
      "type": "Feature",
      "properties": {
        "@id": "way/42502901",
        "HFCS": "Urban Principal Arterial",
        "NHS": "yes",
        "NJDOT_SRI": "00000001",
        "expressway": "yes",
        "hgv": "designated",
        "hgv:state_network": "yes",
        "highway": "motorway",
        "lanes": "2",
        "maxspeed": "45 mph",
        "name": "Bergen Boulevard",
        "oneway": "yes",
        "ref": "US 1;US 9;US 46",
        "source:hgv:state_network": "NJDOT http://www.state.nj.us/transportation/about/rules/pdf/chapter32truckaccess.pdf",
        "surface": "asphalt",
        "tiger:cfcc": "A25",
        "tiger:county": "Bergen, NJ",
        "tiger:name_base": "Bergen",
        "tiger:name_base_1": "United States Highway 9",
        "tiger:name_base_2": "United States Highway 46",
        "tiger:name_base_3": "United States Highway 1",
        "tiger:name_type": "Blvd",
        "tiger:reviewed": "no"
      },
      "geometry": {
        "type": "LineString",
        "coordinates": [
          [
            -73.9805767,
            40.857938
          ],
          [
            -73.980711,
            40.8578782
          ],
          [
            -73.9808357,
            40.8578194
          ],
          [
            -73.9809541,
            40.8577593
          ],
          [
            -73.9810756,
            40.8576943
          ],
          [
            -73.9811923,
            40.8576282
          ],
          [
            -73.9813059,
            40.8575594
          ],
          [
            -73.9814174,
            40.8574882
          ],
          [
            -73.9815237,
            40.8574158
          ],
          [
            -73.9816313,
            40.8573396
          ],
          [
            -73.9817339,
            40.8572624
          ],
          [
            -73.9818347,
            40.857182
          ],
          [
            -73.9819312,
            40.8571005
          ],
          [
            -73.9820383,
            40.8570038
          ]
        ]
      },
      "id": "way/42502901"
    },
    {
      "type": "Feature",
      "properties": {
        "@id": "way/42502903",
        "HFCS": "Urban Principal Arterial",
        "NHS": "yes",
        "NJDOT_SRI": "00000001",
        "expressway": "yes",
        "hgv": "designated",
        "hgv:state_network": "yes",
        "highway": "motorway",
        "lanes": "2",
        "maxspeed": "45 mph",
        "name": "Bergen Boulevard",
        "oneway": "yes",
        "ref": "US 1;US 9;US 46",
        "source:hgv:state_network": "NJDOT http://www.state.nj.us/transportation/about/rules/pdf/chapter32truckaccess.pdf",
        "surface": "asphalt"
      },
      "geometry": {
        "type": "LineString",
        "coordinates": [
          [
            -73.9803038,
            40.8579614
          ],
          [
            -73.9801695,
            40.8580115
          ],
          [
            -73.9800369,
            40.8580573
          ],
          [
            -73.9799045,
            40.858099
          ],
          [
            -73.9797683,
            40.8581391
          ],
          [
            -73.9796346,
            40.858175
          ],
          [
            -73.9794958,
            40.8582083
          ],
          [
            -73.9793567,
            40.8582391
          ],
          [
            -73.9792205,
            40.8582666
          ],
          [
            -73.9790761,
            40.8582915
          ],
          [
            -73.9789355,
            40.8583131
          ],
          [
            -73.9787905,
            40.8583325
          ],
          [
            -73.9786991,
            40.8583416
          ]
        ]
      },
      "id": "way/42502903"
    },
    {
      "type": "Feature",
      "properties": {
        "@id": "way/42502907",
        "HFCS": "Urban Principal Arterial",
        "NHS": "yes",
        "NJDOT_SRI": "00000001",
        "bridge": "yes",
        "expressway": "yes",
        "hgv": "designated",
        "hgv:state_network": "yes",
        "highway": "motorway",
        "lanes": "2",
        "layer": "1",
        "maxspeed": "45 mph",
        "name": "Bergen Boulevard",
        "oneway": "yes",
        "ref": "US 1;US 9;US 46",
        "source:hgv:state_network": "NJDOT http://www.state.nj.us/transportation/about/rules/pdf/chapter32truckaccess.pdf",
        "surface": "concrete"
      },
      "geometry": {
        "type": "LineString",
        "coordinates": [
          [
            -73.9805046,
            40.857881
          ],
          [
            -73.9804154,
            40.8579182
          ],
          [
            -73.9803038,
            40.8579614
          ]
        ]
      },
      "id": "way/42502907"
    },
    {
      "type": "Feature",
      "properties": {
        "@id": "way/42502909",
        "HFCS": "Urban Principal Arterial",
        "NHS": "yes",
        "NJDOT_SRI": "00000001",
        "bridge": "yes",
        "expressway": "yes",
        "hgv": "designated",
        "hgv:state_network": "yes",
        "highway": "motorway",
        "lanes": "2",
        "layer": "1",
        "maxspeed": "45 mph",
        "name": "Bergen Boulevard",
        "oneway": "yes",
        "ref": "US 1;US 9;US 46",
        "source:hgv:state_network": "NJDOT http://www.state.nj.us/transportation/about/rules/pdf/chapter32truckaccess.pdf",
        "surface": "concrete",
        "tiger:cfcc": "A25",
        "tiger:county": "Bergen, NJ",
        "tiger:name_base": "Bergen",
        "tiger:name_base_1": "United States Highway 9",
        "tiger:name_base_2": "United States Highway 46",
        "tiger:name_base_3": "United States Highway 1",
        "tiger:name_type": "Blvd",
        "tiger:reviewed": "no"
      },
      "geometry": {
        "type": "LineString",
        "coordinates": [
          [
            -73.980377,
            40.8580198
          ],
          [
            -73.980461,
            40.8579863
          ],
          [
            -73.9805767,
            40.857938
          ]
        ]
      },
      "id": "way/42502909"
    },
    {
      "type": "Feature",
      "properties": {
        "@id": "way/42502965",
        "HFCS": "Urban Principal Arterial",
        "NHS": "yes",
        "NJDOT_SRI": "00000001",
        "bridge": "yes",
        "expressway": "yes",
        "hgv": "designated",
        "hgv:state_network": "yes",
        "highway": "motorway",
        "lanes": "2",
        "layer": "1",
        "maxspeed": "45 mph",
        "name": "Bergen Boulevard",
        "oneway": "yes",
        "ref": "US 1;US 9;US 46",
        "source:hgv:state_network": "NJDOT http://www.state.nj.us/transportation/about/rules/pdf/chapter32truckaccess.pdf",
        "surface": "concrete"
      },
      "geometry": {
        "type": "LineString",
        "coordinates": [
          [
            -73.9786991,
            40.8583416
          ],
          [
            -73.9784578,
            40.8583633
          ]
        ]
      },
      "id": "way/42502965"
    },
    {
      "type": "Feature",
      "properties": {
        "@id": "way/42502966",
        "HFCS": "Urban Principal Arterial",
        "NHS": "yes",
        "NJDOT_SRI": "00000001",
        "bridge": "yes",
        "expressway": "yes",
        "hgv": "designated",
        "hgv:state_network": "yes",
        "highway": "motorway",
        "lanes": "2",
        "layer": "1",
        "maxspeed": "45 mph",
        "name": "Bergen Boulevard",
        "oneway": "yes",
        "ref": "US 1;US 9;US 46",
        "source:hgv:state_network": "NJDOT http://www.state.nj.us/transportation/about/rules/pdf/chapter32truckaccess.pdf",
        "surface": "concrete",
        "tiger:cfcc": "A25",
        "tiger:county": "Bergen, NJ",
        "tiger:name_base": "Bergen",
        "tiger:name_base_1": "United States Highway 9",
        "tiger:name_base_2": "United States Highway 46",
        "tiger:name_base_3": "United States Highway 1",
        "tiger:name_type": "Blvd",
        "tiger:reviewed": "no"
      },
      "geometry": {
        "type": "LineString",
        "coordinates": [
          [
            -73.9784155,
            40.8584453
          ],
          [
            -73.9786541,
            40.858424
          ]
        ]
      },
      "id": "way/42502966"
    },
    {
      "type": "Feature",
      "properties": {
        "@id": "way/42502968",
        "HFCS": "Urban Principal Arterial",
        "NHS": "yes",
        "NJDOT_SRI": "00000001",
        "destination:lanes": "George Washington Bridge|none;Fort Lee;Palisades Interstate Parkway",
        "expressway": "yes",
        "hgv": "designated",
        "hgv:state_network": "yes",
        "highway": "motorway",
        "lanes": "2",
        "maxspeed": "45 mph",
        "name": "Bergen Boulevard",
        "oneway": "yes",
        "ref": "US 1;US 9;US 46",
        "source:hgv:state_network": "NJDOT http://www.state.nj.us/transportation/about/rules/pdf/chapter32truckaccess.pdf",
        "surface": "asphalt",
        "turn:lanes": "none|through;slight_right"
      },
      "geometry": {
        "type": "LineString",
        "coordinates": [
          [
            -73.9784578,
            40.8583633
          ],
          [
            -73.9782914,
            40.8583744
          ]
        ]
      },
      "id": "way/42502968"
    },
    {
      "type": "Feature",
      "properties": {
        "@id": "way/42508822",
        "HFCS": "Urban Principal Arterial",
        "NHS": "yes",
        "NJDOT_SRI": "00000001",
        "bridge": "yes",
        "expressway": "yes",
        "hgv": "designated",
        "hgv:state_network": "yes",
        "highway": "motorway",
        "lanes": "2",
        "layer": "1",
        "maxspeed": "45 mph",
        "oneway": "yes",
        "ref": "US 1;US 9;US 46",
        "source:hgv:state_network": "NJDOT http://www.state.nj.us/transportation/about/rules/pdf/chapter32truckaccess.pdf",
        "surface": "concrete",
        "tiger:cfcc": "A25",
        "tiger:county": "Bergen, NJ",
        "tiger:name_base": "Bergen",
        "tiger:name_base_1": "United States Highway 9",
        "tiger:name_base_2": "United States Highway 46",
        "tiger:name_base_3": "United States Highway 1",
        "tiger:name_type": "Blvd",
        "tiger:reviewed": "no"
      },
      "geometry": {
        "type": "LineString",
        "coordinates": [
          [
            -73.9854299,
            40.8515822
          ],
          [
            -73.9855636,
            40.8514479
          ]
        ]
      },
      "id": "way/42508822"
    },
    {
      "type": "Feature",
      "properties": {
        "@id": "way/42508826",
        "HFCS": "Urban Principal Arterial",
        "NHS": "yes",
        "NJDOT_SRI": "00000001",
        "expressway": "yes",
        "hgv": "designated",
        "hgv:state_network": "yes",
        "highway": "motorway",
        "lanes": "2",
        "maxspeed": "45 mph",
        "oneway": "yes",
        "ref": "US 1;US 9;US 46",
        "source:hgv:state_network": "NJDOT http://www.state.nj.us/transportation/about/rules/pdf/chapter32truckaccess.pdf",
        "surface": "asphalt",
        "tiger:cfcc": "A25",
        "tiger:county": "Bergen, NJ",
        "tiger:name_base": "Bergen",
        "tiger:name_base_1": "United States Highway 9",
        "tiger:name_base_2": "United States Highway 46",
        "tiger:name_base_3": "United States Highway 1",
        "tiger:name_type": "Blvd"
      },
      "geometry": {
        "type": "LineString",
        "coordinates": [
          [
            -73.98588,
            40.8511342
          ],
          [
            -73.9861915,
            40.8508255
          ],
          [
            -73.986719,
            40.8503025
          ]
        ]
      },
      "id": "way/42508826"
    },
    {
      "type": "Feature",
      "properties": {
        "@id": "way/42508827",
        "HFCS": "Urban Principal Arterial",
        "NHS": "yes",
        "NJDOT_SRI": "00000001",
        "embankment": "yes",
        "expressway": "yes",
        "hgv": "designated",
        "hgv:state_network": "yes",
        "highway": "motorway",
        "lanes": "2",
        "maxspeed": "45 mph",
        "oneway": "yes",
        "ref": "US 1;US 9;US 46",
        "source:hgv:state_network": "NJDOT http://www.state.nj.us/transportation/about/rules/pdf/chapter32truckaccess.pdf",
        "surface": "asphalt",
        "tiger:cfcc": "A25",
        "tiger:county": "Bergen, NJ",
        "tiger:name_base": "Bergen",
        "tiger:name_base_1": "United States Highway 9",
        "tiger:name_base_2": "United States Highway 46",
        "tiger:name_base_3": "United States Highway 1",
        "tiger:name_type": "Blvd",
        "tiger:reviewed": "no"
      },
      "geometry": {
        "type": "LineString",
        "coordinates": [
          [
            -73.9868374,
            40.850185
          ],
          [
            -73.9882087,
            40.8488205
          ]
        ]
      },
      "id": "way/42508827"
    },
    {
      "type": "Feature",
      "properties": {
        "@id": "way/42508828",
        "HFCS": "Urban Principal Arterial",
        "NHS": "yes",
        "NJDOT_SRI": "00000001",
        "destination:lanes": "|none;Fifth Street;Palisades Park",
        "expressway": "yes",
        "hgv": "designated",
        "hgv:state_network": "yes",
        "highway": "motorway",
        "lanes": "2",
        "maxspeed": "45 mph",
        "oneway": "yes",
        "ref": "US 1;US 9;US 46",
        "source:hgv:state_network": "NJDOT http://www.state.nj.us/transportation/about/rules/pdf/chapter32truckaccess.pdf",
        "tiger:cfcc": "A25",
        "tiger:county": "Bergen, NJ",
        "tiger:name_base": "Bergen",
        "tiger:name_base_1": "United States Highway 9",
        "tiger:name_base_2": "United States Highway 46",
        "tiger:name_base_3": "United States Highway 1",
        "tiger:name_type": "Blvd",
        "tiger:reviewed": "no",
        "turn:lanes": "|through;slight_right"
      },
      "geometry": {
        "type": "LineString",
        "coordinates": [
          [
            -73.9883884,
            40.8486409
          ],
          [
            -73.9884627,
            40.8485679
          ]
        ]
      },
      "id": "way/42508828"
    },
    {
      "type": "Feature",
      "properties": {
        "@id": "way/42508830",
        "HFCS": "Urban Principal Arterial",
        "NHS": "yes",
        "NJDOT_SRI": "00000001",
        "embankment": "yes",
        "expressway": "yes",
        "hgv": "designated",
        "hgv:state_network": "yes",
        "highway": "motorway",
        "lanes": "2",
        "maxspeed": "45 mph",
        "oneway": "yes",
        "ref": "US 1;US 9;US 46",
        "source:hgv:state_network": "NJDOT http://www.state.nj.us/transportation/about/rules/pdf/chapter32truckaccess.pdf",
        "surface": "asphalt",
        "tiger:name_base_2": "United States Highway 46"
      },
      "geometry": {
        "type": "LineString",
        "coordinates": [
          [
            -73.9921006,
            40.8449496
          ],
          [
            -73.9930872,
            40.8439691
          ]
        ]
      },
      "id": "way/42508830"
    },
    {
      "type": "Feature",
      "properties": {
        "@id": "way/42508831",
        "HFCS": "Urban Principal Arterial",
        "NHS": "yes",
        "NJDOT_SRI": "00000001",
        "bridge": "yes",
        "expressway": "yes",
        "hgv": "designated",
        "hgv:state_network": "yes",
        "highway": "motorway",
        "lanes": "2",
        "layer": "1",
        "maxspeed": "45 mph",
        "oneway": "yes",
        "ref": "US 1;US 9;US 46",
        "source:hgv:state_network": "NJDOT http://www.state.nj.us/transportation/about/rules/pdf/chapter32truckaccess.pdf",
        "surface": "concrete",
        "tiger:name_base_2": "United States Highway 46"
      },
      "geometry": {
        "type": "LineString",
        "coordinates": [
          [
            -73.9930872,
            40.8439691
          ],
          [
            -73.9932668,
            40.8437916
          ]
        ]
      },
      "id": "way/42508831"
    },
    {
      "type": "Feature",
      "properties": {
        "@id": "way/42508833",
        "HFCS": "Urban Principal Arterial",
        "NHS": "yes",
        "NJDOT_SRI": "00000001",
        "embankment": "yes",
        "expressway": "yes",
        "hgv": "designated",
        "hgv:state_network": "yes",
        "highway": "motorway",
        "lanes": "3",
        "maxspeed": "45 mph",
        "oneway": "yes",
        "ref": "US 1;US 9;US 46",
        "source:hgv:state_network": "NJDOT http://www.state.nj.us/transportation/about/rules/pdf/chapter32truckaccess.pdf",
        "surface": "asphalt"
      },
      "geometry": {
        "type": "LineString",
        "coordinates": [
          [
            -73.9929985,
            40.8439181
          ],
          [
            -73.9920101,
            40.8448967
          ]
        ]
      },
      "id": "way/42508833"
    },
    {
      "type": "Feature",
      "properties": {
        "@id": "way/42508834",
        "HFCS": "Urban Principal Arterial",
        "NHS": "yes",
        "NJDOT_SRI": "00000001",
        "embankment": "yes",
        "expressway": "yes",
        "hgv": "designated",
        "hgv:state_network": "yes",
        "highway": "motorway",
        "lanes": "2",
        "maxspeed": "45 mph",
        "oneway": "yes",
        "ref": "US 1;US 9;US 46",
        "source:hgv:state_network": "NJDOT http://www.state.nj.us/transportation/about/rules/pdf/chapter32truckaccess.pdf",
        "surface": "asphalt",
        "tiger:name_base_2": "United States Highway 46"
      },
      "geometry": {
        "type": "LineString",
        "coordinates": [
          [
            -73.9932668,
            40.8437916
          ],
          [
            -73.9942349,
            40.8428302
          ],
          [
            -73.9943191,
            40.8427489
          ],
          [
            -73.9944154,
            40.8426598
          ],
          [
            -73.9944731,
            40.8426086
          ]
        ]
      },
      "id": "way/42508834"
    },
    {
      "type": "Feature",
      "properties": {
        "@id": "way/42508835",
        "HFCS": "Urban Principal Arterial",
        "NHS": "yes",
        "NJDOT_SRI": "00000001",
        "bridge": "yes",
        "expressway": "yes",
        "hgv": "designated",
        "hgv:state_network": "yes",
        "highway": "motorway",
        "lanes": "2",
        "layer": "1",
        "maxspeed": "45 mph",
        "oneway": "yes",
        "ref": "US 1;US 9;US 46",
        "source:hgv:state_network": "NJDOT http://www.state.nj.us/transportation/about/rules/pdf/chapter32truckaccess.pdf",
        "surface": "concrete",
        "tiger:name_base_2": "United States Highway 46"
      },
      "geometry": {
        "type": "LineString",
        "coordinates": [
          [
            -73.9944731,
            40.8426086
          ],
          [
            -73.9945141,
            40.8425735
          ],
          [
            -73.9946061,
            40.8424998
          ]
        ]
      },
      "id": "way/42508835"
    },
    {
      "type": "Feature",
      "properties": {
        "@id": "way/42508842",
        "HFCS": "Urban Principal Arterial",
        "NHS": "yes",
        "NJDOT_SRI": "00000001",
        "expressway": "yes",
        "hgv": "designated",
        "hgv:state_network": "yes",
        "highway": "motorway",
        "lanes": "2",
        "maxspeed": "45 mph",
        "oneway": "yes",
        "ref": "US 1;US 9;US 46",
        "source:hgv:state_network": "NJDOT http://www.state.nj.us/transportation/about/rules/pdf/chapter32truckaccess.pdf",
        "surface": "asphalt",
        "tiger:name_base_2": "United States Highway 46"
      },
      "geometry": {
        "type": "LineString",
        "coordinates": [
          [
            -73.9946061,
            40.8424998
          ],
          [
            -73.9946581,
            40.8424607
          ],
          [
            -73.9947123,
            40.8424206
          ],
          [
            -73.9947646,
            40.8423835
          ],
          [
            -73.9948184,
            40.8423462
          ],
          [
            -73.9948728,
            40.8423097
          ],
          [
            -73.9949307,
            40.8422725
          ],
          [
            -73.9949853,
            40.842239
          ],
          [
            -73.9950414,
            40.8422053
          ],
          [
            -73.9951574,
            40.8421403
          ],
          [
            -73.9952774,
            40.842077
          ],
          [
            -73.9953969,
            40.842018
          ],
          [
            -73.9955207,
            40.8419614
          ],
          [
            -73.9956467,
            40.8419088
          ],
          [
            -73.9957691,
            40.8418631
          ],
          [
            -73.9958964,
            40.8418174
          ],
          [
            -73.9959537,
            40.8417981
          ],
          [
            -73.9960823,
            40.8417594
          ]
        ]
      },
      "id": "way/42508842"
    },
    {
      "type": "Feature",
      "properties": {
        "@id": "way/42508844",
        "HFCS": "Urban Principal Arterial",
        "NHS": "yes",
        "NJDOT_SRI": "00000001",
        "bridge": "yes",
        "expressway": "yes",
        "hgv": "designated",
        "hgv:state_network": "yes",
        "highway": "motorway",
        "lanes": "3",
        "layer": "1",
        "maxspeed": "45 mph",
        "oneway": "yes",
        "ref": "US 1;US 9;US 46",
        "source:hgv:state_network": "NJDOT http://www.state.nj.us/transportation/about/rules/pdf/chapter32truckaccess.pdf",
        "surface": "concrete"
      },
      "geometry": {
        "type": "LineString",
        "coordinates": [
          [
            -73.9931765,
            40.8437393
          ],
          [
            -73.9929985,
            40.8439181
          ]
        ]
      },
      "id": "way/42508844"
    },
    {
      "type": "Feature",
      "properties": {
        "@id": "way/42508845",
        "HFCS": "Urban Principal Arterial",
        "NHS": "yes",
        "NJDOT_SRI": "00000001",
        "embankment": "yes",
        "expressway": "yes",
        "hgv": "designated",
        "hgv:state_network": "yes",
        "highway": "motorway",
        "lanes": "3",
        "maxspeed": "45 mph",
        "oneway": "yes",
        "ref": "US 1;US 9;US 46",
        "source:hgv:state_network": "NJDOT http://www.state.nj.us/transportation/about/rules/pdf/chapter32truckaccess.pdf",
        "surface": "asphalt"
      },
      "geometry": {
        "type": "LineString",
        "coordinates": [
          [
            -73.9943809,
            40.8425526
          ],
          [
            -73.994325,
            40.8426034
          ],
          [
            -73.9942301,
            40.8426916
          ],
          [
            -73.9941462,
            40.8427731
          ],
          [
            -73.9940602,
            40.8428563
          ],
          [
            -73.9938924,
            40.8430237
          ],
          [
            -73.9931765,
            40.8437393
          ]
        ]
      },
      "id": "way/42508845"
    },
    {
      "type": "Feature",
      "properties": {
        "@id": "way/42508846",
        "HFCS": "Urban Principal Arterial",
        "NHS": "yes",
        "NJDOT_SRI": "00000001",
        "bridge": "yes",
        "expressway": "yes",
        "hgv": "designated",
        "hgv:state_network": "yes",
        "highway": "motorway",
        "lanes": "3",
        "layer": "1",
        "maxspeed": "45 mph",
        "oneway": "yes",
        "ref": "US 1;US 9;US 46",
        "source:hgv:state_network": "NJDOT http://www.state.nj.us/transportation/about/rules/pdf/chapter32truckaccess.pdf",
        "surface": "concrete"
      },
      "geometry": {
        "type": "LineString",
        "coordinates": [
          [
            -73.9945166,
            40.842441
          ],
          [
            -73.9943809,
            40.8425526
          ]
        ]
      },
      "id": "way/42508846"
    },
    {
      "type": "Feature",
      "properties": {
        "@id": "way/42508875",
        "HFCS": "Urban Principal Arterial",
        "NHS": "yes",
        "NJDOT_SRI": "00000001",
        "bridge": "yes",
        "expressway": "yes",
        "hgv": "designated",
        "hgv:state_network": "yes",
        "highway": "motorway",
        "lanes": "3",
        "layer": "1",
        "maxspeed": "45 mph",
        "oneway": "yes",
        "ref": "US 1;US 9;US 46",
        "source:hgv:state_network": "NJDOT http://www.state.nj.us/transportation/about/rules/pdf/chapter32truckaccess.pdf",
        "surface": "concrete"
      },
      "geometry": {
        "type": "LineString",
        "coordinates": [
          [
            -73.9906162,
            40.8462829
          ],
          [
            -73.9904364,
            40.8464592
          ]
        ]
      },
      "id": "way/42508875"
    },
    {
      "type": "Feature",
      "properties": {
        "@id": "way/42508876",
        "HFCS": "Urban Principal Arterial",
        "NHS": "yes",
        "NJDOT_SRI": "00000001",
        "bridge": "yes",
        "expressway": "yes",
        "hgv": "designated",
        "hgv:state_network": "yes",
        "highway": "motorway",
        "lanes": "2",
        "layer": "1",
        "maxspeed": "45 mph",
        "oneway": "yes",
        "ref": "US 1;US 9;US 46",
        "source:hgv:state_network": "NJDOT http://www.state.nj.us/transportation/about/rules/pdf/chapter32truckaccess.pdf",
        "surface": "concrete",
        "tiger:name_base_2": "United States Highway 46",
        "tiger:name_base_3": "United States Highway 1"
      },
      "geometry": {
        "type": "LineString",
        "coordinates": [
          [
            -73.9905278,
            40.8465095
          ],
          [
            -73.9907074,
            40.8463317
          ]
        ]
      },
      "id": "way/42508876"
    },
    {
      "type": "Feature",
      "properties": {
        "@id": "way/42508878",
        "HFCS": "Urban Principal Arterial",
        "NHS": "yes",
        "NJDOT_SRI": "00000001",
        "embankment": "yes",
        "expressway": "yes",
        "hgv": "designated",
        "hgv:state_network": "yes",
        "highway": "motorway",
        "lanes": "3",
        "maxspeed": "45 mph",
        "oneway": "yes",
        "ref": "US 1;US 9;US 46",
        "source:hgv:state_network": "NJDOT http://www.state.nj.us/transportation/about/rules/pdf/chapter32truckaccess.pdf",
        "surface": "asphalt"
      },
      "geometry": {
        "type": "LineString",
        "coordinates": [
          [
            -73.9918299,
            40.8450747
          ],
          [
            -73.9906162,
            40.8462829
          ]
        ]
      },
      "id": "way/42508878"
    },
    {
      "type": "Feature",
      "properties": {
        "@id": "way/42508879",
        "HFCS": "Urban Principal Arterial",
        "NHS": "yes",
        "NJDOT_SRI": "00000001",
        "bridge": "yes",
        "expressway": "yes",
        "hgv": "designated",
        "hgv:state_network": "yes",
        "highway": "motorway",
        "lanes": "3",
        "layer": "1",
        "maxspeed": "45 mph",
        "oneway": "yes",
        "ref": "US 1;US 9;US 46",
        "source:hgv:state_network": "NJDOT http://www.state.nj.us/transportation/about/rules/pdf/chapter32truckaccess.pdf",
        "surface": "concrete"
      },
      "geometry": {
        "type": "LineString",
        "coordinates": [
          [
            -73.9920101,
            40.8448967
          ],
          [
            -73.9918299,
            40.8450747
          ]
        ]
      },
      "id": "way/42508879"
    },
    {
      "type": "Feature",
      "properties": {
        "@id": "way/42508880",
        "HFCS": "Urban Principal Arterial",
        "NHS": "yes",
        "NJDOT_SRI": "00000001",
        "bridge": "yes",
        "expressway": "yes",
        "hgv": "designated",
        "hgv:state_network": "yes",
        "highway": "motorway",
        "lanes": "2",
        "layer": "1",
        "maxspeed": "45 mph",
        "oneway": "yes",
        "ref": "US 1;US 9;US 46",
        "source:hgv:state_network": "NJDOT http://www.state.nj.us/transportation/about/rules/pdf/chapter32truckaccess.pdf",
        "surface": "concrete",
        "tiger:name_base_2": "United States Highway 46"
      },
      "geometry": {
        "type": "LineString",
        "coordinates": [
          [
            -73.9919227,
            40.8451269
          ],
          [
            -73.9921006,
            40.8449496
          ]
        ]
      },
      "id": "way/42508880"
    },
    {
      "type": "Feature",
      "properties": {
        "@id": "way/42508882",
        "HFCS": "Urban Principal Arterial",
        "NHS": "yes",
        "NJDOT_SRI": "00000001",
        "expressway": "yes",
        "hgv": "designated",
        "hgv:state_network": "yes",
        "highway": "motorway",
        "lanes": "2",
        "maxspeed": "45 mph",
        "oneway": "yes",
        "ref": "US 1;US 9;US 46",
        "source:hgv:state_network": "NJDOT http://www.state.nj.us/transportation/about/rules/pdf/chapter32truckaccess.pdf",
        "surface": "asphalt",
        "tiger:cfcc": "A21",
        "tiger:county": "Bergen, NJ",
        "tiger:name_base": "United States Highway 1",
        "tiger:name_base_1": "United States Highway 9",
        "tiger:name_base_2": "United States Highway 46",
        "tiger:reviewed": "no"
      },
      "geometry": {
        "type": "LineString",
        "coordinates": [
          [
            -73.9854012,
            40.8514896
          ],
          [
            -73.9853207,
            40.8515751
          ],
          [
            -73.9852393,
            40.8516678
          ],
          [
            -73.9851636,
            40.8517637
          ],
          [
            -73.9850965,
            40.8518606
          ],
          [
            -73.9850345,
            40.8519613
          ],
          [
            -73.9849797,
            40.8520649
          ],
          [
            -73.9849334,
            40.8521693
          ],
          [
            -73.9848943,
            40.8522762
          ],
          [
            -73.9848618,
            40.8523857
          ],
          [
            -73.9848391,
            40.8524927
          ],
          [
            -73.9848204,
            40.8526024
          ],
          [
            -73.9848043,
            40.8527122
          ],
          [
            -73.9847965,
            40.8527665
          ]
        ]
      },
      "id": "way/42508882"
    },
    {
      "type": "Feature",
      "properties": {
        "@id": "way/42508885",
        "HFCS": "Urban Principal Arterial",
        "NHS": "yes",
        "NJDOT_SRI": "00000001",
        "embankment": "yes",
        "expressway": "yes",
        "hgv": "designated",
        "hgv:state_network": "yes",
        "highway": "motorway",
        "lanes": "3",
        "maxspeed": "45 mph",
        "oneway": "yes",
        "ref": "US 1;US 9;US 46",
        "source:hgv:state_network": "NJDOT http://www.state.nj.us/transportation/about/rules/pdf/chapter32truckaccess.pdf",
        "surface": "asphalt",
        "tiger:name_base_2": "United States Highway 46"
      },
      "geometry": {
        "type": "LineString",
        "coordinates": [
          [
            -73.9881164,
            40.8487684
          ],
          [
            -73.9867466,
            40.8501312
          ]
        ]
      },
      "id": "way/42508885"
    },
    {
      "type": "Feature",
      "properties": {
        "@id": "way/42508886",
        "HFCS": "Urban Principal Arterial",
        "NHS": "yes",
        "NJDOT_SRI": "00000001",
        "bridge": "yes",
        "expressway": "yes",
        "hgv": "designated",
        "hgv:state_network": "yes",
        "highway": "motorway",
        "lanes": "3",
        "layer": "1",
        "maxspeed": "45 mph",
        "oneway": "yes",
        "ref": "US 1;US 9;US 46",
        "source:hgv:state_network": "NJDOT http://www.state.nj.us/transportation/about/rules/pdf/chapter32truckaccess.pdf",
        "surface": "concrete",
        "tiger:name_base_2": "United States Highway 46"
      },
      "geometry": {
        "type": "LineString",
        "coordinates": [
          [
            -73.9882974,
            40.848588
          ],
          [
            -73.9881164,
            40.8487684
          ]
        ]
      },
      "id": "way/42508886"
    },
    {
      "type": "Feature",
      "properties": {
        "@id": "way/42508887",
        "HFCS": "Urban Principal Arterial",
        "NHS": "yes",
        "NJDOT_SRI": "00000001",
        "bridge": "yes",
        "expressway": "yes",
        "hgv": "designated",
        "hgv:state_network": "yes",
        "highway": "motorway",
        "lanes": "2",
        "layer": "1",
        "maxspeed": "45 mph",
        "oneway": "yes",
        "ref": "US 1;US 9;US 46",
        "source:hgv:state_network": "NJDOT http://www.state.nj.us/transportation/about/rules/pdf/chapter32truckaccess.pdf",
        "surface": "concrete",
        "tiger:cfcc": "A25",
        "tiger:county": "Bergen, NJ",
        "tiger:name_base": "Bergen",
        "tiger:name_base_1": "United States Highway 9",
        "tiger:name_base_2": "United States Highway 46",
        "tiger:name_base_3": "United States Highway 1",
        "tiger:name_type": "Blvd",
        "tiger:reviewed": "no"
      },
      "geometry": {
        "type": "LineString",
        "coordinates": [
          [
            -73.9882087,
            40.8488205
          ],
          [
            -73.9883884,
            40.8486409
          ]
        ]
      },
      "id": "way/42508887"
    },
    {
      "type": "Feature",
      "properties": {
        "@id": "way/42508888",
        "HFCS": "Urban Principal Arterial",
        "NHS": "yes",
        "NJDOT_SRI": "00000001",
        "bridge": "yes",
        "expressway": "yes",
        "hgv": "designated",
        "hgv:state_network": "yes",
        "highway": "motorway",
        "lanes": "2",
        "layer": "1",
        "maxspeed": "45 mph",
        "oneway": "yes",
        "ref": "US 1;US 9;US 46",
        "source:hgv:state_network": "NJDOT http://www.state.nj.us/transportation/about/rules/pdf/chapter32truckaccess.pdf",
        "surface": "concrete",
        "tiger:cfcc": "A21",
        "tiger:county": "Bergen, NJ",
        "tiger:name_base": "United States Highway 1",
        "tiger:name_base_1": "United States Highway 9",
        "tiger:name_base_2": "United States Highway 46",
        "tiger:reviewed": "no"
      },
      "geometry": {
        "type": "LineString",
        "coordinates": [
          [
            -73.9855348,
            40.851353
          ],
          [
            -73.9854012,
            40.8514896
          ]
        ]
      },
      "id": "way/42508888"
    },
    {
      "type": "Feature",
      "properties": {
        "@id": "way/42508889",
        "HFCS": "Urban Principal Arterial",
        "NHS": "yes",
        "NJDOT_SRI": "00000001",
        "bridge": "yes",
        "expressway": "yes",
        "hgv": "designated",
        "hgv:state_network": "yes",
        "highway": "motorway",
        "lanes": "3",
        "layer": "1",
        "maxspeed": "45 mph",
        "oneway": "yes",
        "ref": "US 1;US 9;US 46",
        "source:hgv:state_network": "NJDOT http://www.state.nj.us/transportation/about/rules/pdf/chapter32truckaccess.pdf",
        "surface": "concrete",
        "tiger:name_base_2": "United States Highway 46",
        "turn:lanes": "none|none|merge_to_left"
      },
      "geometry": {
        "type": "LineString",
        "coordinates": [
          [
            -73.9867466,
            40.8501312
          ],
          [
            -73.9866265,
            40.8502515
          ]
        ]
      },
      "id": "way/42508889"
    },
    {
      "type": "Feature",
      "properties": {
        "@id": "way/42508890",
        "HFCS": "Urban Principal Arterial",
        "NHS": "yes",
        "NJDOT_SRI": "00000001",
        "expressway": "yes",
        "hgv": "designated",
        "hgv:state_network": "yes",
        "highway": "motorway",
        "lanes": "3",
        "maxspeed": "45 mph",
        "oneway": "yes",
        "placement": "right_of:1",
        "ref": "US 1;US 9;US 46",
        "source:hgv:state_network": "NJDOT http://www.state.nj.us/transportation/about/rules/pdf/chapter32truckaccess.pdf",
        "surface": "asphalt",
        "tiger:name_base_2": "United States Highway 46",
        "turn:lanes": "||merge_to_left"
      },
      "geometry": {
        "type": "LineString",
        "coordinates": [
          [
            -73.9866265,
            40.8502515
          ],
          [
            -73.9865045,
            40.8503703
          ]
        ]
      },
      "id": "way/42508890"
    },
    {
      "type": "Feature",
      "properties": {
        "@id": "way/42508891",
        "HFCS": "Urban Principal Arterial",
        "NHS": "yes",
        "NJDOT_SRI": "00000001",
        "bridge": "yes",
        "expressway": "yes",
        "hgv": "designated",
        "hgv:state_network": "yes",
        "highway": "motorway",
        "lanes": "2",
        "layer": "1",
        "maxspeed": "45 mph",
        "oneway": "yes",
        "ref": "US 1;US 9;US 46",
        "source:hgv:state_network": "NJDOT http://www.state.nj.us/transportation/about/rules/pdf/chapter32truckaccess.pdf",
        "surface": "concrete",
        "tiger:cfcc": "A25",
        "tiger:county": "Bergen, NJ",
        "tiger:name_base": "Bergen",
        "tiger:name_base_1": "United States Highway 9",
        "tiger:name_base_2": "United States Highway 46",
        "tiger:name_base_3": "United States Highway 1",
        "tiger:name_type": "Blvd",
        "tiger:reviewed": "no"
      },
      "geometry": {
        "type": "LineString",
        "coordinates": [
          [
            -73.986719,
            40.8503025
          ],
          [
            -73.9868374,
            40.850185
          ]
        ]
      },
      "id": "way/42508891"
    },
    {
      "type": "Feature",
      "properties": {
        "@id": "way/48109826",
        "HFCS": "Urban Principal Arterial",
        "NHS": "yes",
        "NJDOT_SRI": "00000001",
        "hgv": "designated",
        "hgv:state_network": "yes",
        "highway": "motorway",
        "lanes": "2",
        "maxspeed": "45 mph",
        "oneway": "yes",
        "ref": "US 1;US 9;US 46",
        "source:hgv:state_network": "NJDOT http://www.state.nj.us/transportation/about/rules/pdf/chapter32truckaccess.pdf",
        "toll": "no"
      },
      "geometry": {
        "type": "LineString",
        "coordinates": [
          [
            -73.9782914,
            40.8583744
          ],
          [
            -73.9780794,
            40.8583885
          ],
          [
            -73.9779258,
            40.8583988
          ],
          [
            -73.9777839,
            40.8584078
          ],
          [
            -73.977653,
            40.8584126
          ],
          [
            -73.9774988,
            40.8584152
          ],
          [
            -73.9773525,
            40.8584107
          ],
          [
            -73.9772085,
            40.8584054
          ],
          [
            -73.9770895,
            40.8583965
          ]
        ]
      },
      "id": "way/48109826"
    },
    {
      "type": "Feature",
      "properties": {
        "@id": "way/50073733",
        "HFCS": "Urban Principal Arterial",
        "NHS": "yes",
        "NJDOT_SRI": "00000001",
        "destination:lanes": "New York|New York|New York;Sixth Street;Palisades Park",
        "expressway": "yes",
        "hgv": "designated",
        "hgv:state_network": "yes",
        "highway": "motorway",
        "lanes": "3",
        "maxspeed": "45 mph",
        "oneway": "yes",
        "placement": "middle_of:2",
        "ref": "US 1;US 9;US 46",
        "source:hgv:state_network": "NJDOT http://www.state.nj.us/transportation/about/rules/pdf/chapter32truckaccess.pdf",
        "surface": "asphalt",
        "turn:lanes": "||through;slight_right"
      },
      "geometry": {
        "type": "LineString",
        "coordinates": [
          [
            -73.9965792,
            40.8415482
          ],
          [
            -73.9965515,
            40.8415535
          ],
          [
            -73.9964303,
            40.8415796
          ],
          [
            -73.9962975,
            40.8416079
          ],
          [
            -73.9961755,
            40.8416367
          ],
          [
            -73.9960501,
            40.8416697
          ],
          [
            -73.9959469,
            40.8417016
          ],
          [
            -73.9958323,
            40.8417377
          ]
        ]
      },
      "id": "way/50073733"
    },
    {
      "type": "Feature",
      "properties": {
        "@id": "way/50074176",
        "HFCS": "Urban Principal Arterial",
        "NHS": "yes",
        "NJDOT_SRI": "00000001",
        "hgv": "designated",
        "hgv:state_network": "yes",
        "highway": "motorway",
        "lanes": "2",
        "maxheight:signed": "no",
        "maxspeed": "55 mph",
        "maxspeed:variable": "yes",
        "oneway": "yes",
        "ref": "US 1;US 9;US 46",
        "source:hgv:state_network": "NJDOT http://www.state.nj.us/transportation/about/rules/pdf/chapter32truckaccess.pdf",
        "surface": "asphalt",
        "toll": "no"
      },
      "geometry": {
        "type": "LineString",
        "coordinates": [
          [
            -73.9732758,
            40.8573384
          ],
          [
            -73.9737641,
            40.8578026
          ],
          [
            -73.9738612,
            40.8579011
          ],
          [
            -73.9740352,
            40.8580724
          ],
          [
            -73.9741288,
            40.8581645
          ],
          [
            -73.9742222,
            40.8582542
          ],
          [
            -73.9743082,
            40.8583343
          ],
          [
            -73.9744072,
            40.8584223
          ],
          [
            -73.9744837,
            40.8584882
          ]
        ]
      },
      "id": "way/50074176"
    },
    {
      "type": "Feature",
      "properties": {
        "@id": "way/61274441",
        "HFCS": "Urban Principal Arterial",
        "NHS": "yes",
        "NJDOT_SRI": "00000001",
        "expressway": "yes",
        "hgv": "designated",
        "hgv:state_network": "yes",
        "highway": "motorway",
        "lanes": "2",
        "maxspeed": "45 mph",
        "name": "Bergen Boulevard",
        "oneway": "yes",
        "ref": "US 1;US 9;US 46",
        "source:hgv:state_network": "NJDOT http://www.state.nj.us/transportation/about/rules/pdf/chapter32truckaccess.pdf",
        "surface": "asphalt",
        "tiger:cfcc": "A25",
        "tiger:county": "Bergen, NJ",
        "tiger:name_base": "Bergen",
        "tiger:name_base_1": "United States Highway 9",
        "tiger:name_base_2": "United States Highway 46",
        "tiger:name_base_3": "United States Highway 1",
        "tiger:name_type": "Blvd"
      },
      "geometry": {
        "type": "LineString",
        "coordinates": [
          [
            -73.9771185,
            40.8587115
          ],
          [
            -73.9772595,
            40.8586639
          ],
          [
            -73.9774031,
            40.8586202
          ],
          [
            -73.9775228,
            40.8585901
          ],
          [
            -73.9776416,
            40.8585634
          ],
          [
            -73.9777843,
            40.8585318
          ],
          [
            -73.9779275,
            40.8585048
          ],
          [
            -73.9780737,
            40.8584815
          ],
          [
            -73.9782202,
            40.8584637
          ],
          [
            -73.9783731,
            40.8584498
          ],
          [
            -73.9784155,
            40.8584453
          ]
        ]
      },
      "id": "way/61274441"
    },
    {
      "type": "Feature",
      "properties": {
        "@id": "way/61407190",
        "HFCS": "Urban Principal Arterial",
        "NHS": "yes",
        "NJDOT_SRI": "00000001",
        "expressway": "yes",
        "hgv": "designated",
        "hgv:state_network": "yes",
        "highway": "trunk",
        "lanes": "2",
        "maxspeed": "45 mph",
        "name": "Bergen Boulevard",
        "oneway": "yes",
        "ref": "US 1;US 9;US 46",
        "source:hgv:state_network": "NJDOT http://www.state.nj.us/transportation/about/rules/pdf/chapter32truckaccess.pdf",
        "surface": "asphalt",
        "tiger:cfcc": "A21",
        "tiger:county": "Bergen, NJ",
        "tiger:name_base": "United States Highway 1",
        "tiger:name_base_1": "United States Highway 9",
        "tiger:name_base_2": "United States Highway 46",
        "tiger:reviewed": "no"
      },
      "geometry": {
        "type": "LineString",
        "coordinates": [
          [
            -73.9847668,
            40.8529802
          ],
          [
            -73.9847279,
            40.8532587
          ],
          [
            -73.984723,
            40.8532895
          ],
          [
            -73.9847104,
            40.8533676
          ],
          [
            -73.98469,
            40.8534779
          ],
          [
            -73.9846826,
            40.8535109
          ],
          [
            -73.9846667,
            40.8535845
          ],
          [
            -73.98462,
            40.853758
          ],
          [
            -73.9846067,
            40.8538003
          ],
          [
            -73.9845719,
            40.8539053
          ],
          [
            -73.9845313,
            40.854013
          ],
          [
            -73.9844884,
            40.8541159
          ],
          [
            -73.9844412,
            40.854219
          ],
          [
            -73.984389,
            40.8543222
          ],
          [
            -73.9843337,
            40.8544235
          ],
          [
            -73.9842741,
            40.8545238
          ],
          [
            -73.984266,
            40.8545369
          ],
          [
            -73.9842114,
            40.854622
          ],
          [
            -73.9841725,
            40.8546823
          ]
        ]
      },
      "id": "way/61407190"
    },
    {
      "type": "Feature",
      "properties": {
        "@id": "way/61407193",
        "HFCS": "Urban Principal Arterial",
        "NHS": "yes",
        "NJDOT_SRI": "00000001",
        "expressway": "yes",
        "hgv": "designated",
        "hgv:state_network": "yes",
        "highway": "motorway",
        "lanes": "2",
        "maxspeed": "45 mph",
        "oneway": "yes",
        "ref": "US 1;US 9;US 46",
        "source:hgv:state_network": "NJDOT http://www.state.nj.us/transportation/about/rules/pdf/chapter32truckaccess.pdf",
        "surface": "asphalt",
        "tiger:cfcc": "A25",
        "tiger:county": "Bergen, NJ",
        "tiger:name_base": "Bergen",
        "tiger:name_base_1": "United States Highway 9",
        "tiger:name_base_2": "United States Highway 46",
        "tiger:name_base_3": "United States Highway 1",
        "tiger:name_type": "Blvd",
        "tiger:reviewed": "no"
      },
      "geometry": {
        "type": "LineString",
        "coordinates": [
          [
            -73.9846794,
            40.8538879
          ],
          [
            -73.9847183,
            40.8537709
          ],
          [
            -73.9847488,
            40.8536652
          ],
          [
            -73.984774,
            40.8535636
          ],
          [
            -73.9847955,
            40.8534567
          ],
          [
            -73.9848152,
            40.853346
          ],
          [
            -73.9848324,
            40.8532363
          ],
          [
            -73.9849085,
            40.8526885
          ],
          [
            -73.9849242,
            40.8525794
          ],
          [
            -73.9849433,
            40.8524718
          ],
          [
            -73.9849696,
            40.8523643
          ],
          [
            -73.9850033,
            40.8522577
          ],
          [
            -73.9850436,
            40.8521548
          ],
          [
            -73.9850923,
            40.8520512
          ],
          [
            -73.9851477,
            40.8519498
          ],
          [
            -73.9852104,
            40.8518512
          ],
          [
            -73.9852801,
            40.8517551
          ],
          [
            -73.9853211,
            40.8517055
          ],
          [
            -73.9853563,
            40.8516629
          ],
          [
            -73.9854299,
            40.8515822
          ]
        ]
      },
      "id": "way/61407193"
    },
    {
      "type": "Feature",
      "properties": {
        "@id": "way/120718256",
        "HFCS": "Urban Principal Arterial",
        "NHS": "yes",
        "NJDOT_SRI": "00000001",
        "bridge": "yes",
        "hgv": "designated",
        "hgv:state_network": "yes",
        "highway": "motorway",
        "lanes": "2",
        "layer": "2",
        "lit": "yes",
        "maxspeed": "45 mph",
        "oneway": "yes",
        "ref": "US 1;US 9;US 46",
        "source:hgv:state_network": "NJDOT http://www.state.nj.us/transportation/about/rules/pdf/chapter32truckaccess.pdf",
        "toll": "no"
      },
      "geometry": {
        "type": "LineString",
        "coordinates": [
          [
            -73.9755724,
            40.8580583
          ],
          [
            -73.9754359,
            40.8580037
          ],
          [
            -73.9753065,
            40.857946
          ],
          [
            -73.9751279,
            40.857861
          ]
        ]
      },
      "id": "way/120718256"
    },
    {
      "type": "Feature",
      "properties": {
        "@id": "way/360971117",
        "HFCS": "Urban Principal Arterial",
        "NHS": "yes",
        "NJDOT_SRI": "00000001",
        "expressway": "yes",
        "hgv": "designated",
        "hgv:state_network": "yes",
        "highway": "trunk",
        "lanes": "2",
        "maxspeed": "45 mph",
        "name": "Bergen Boulevard",
        "oneway": "yes",
        "ref": "US 1;US 9;US 46",
        "source:hgv:state_network": "NJDOT http://www.state.nj.us/transportation/about/rules/pdf/chapter32truckaccess.pdf",
        "surface": "asphalt",
        "tiger:cfcc": "A25",
        "tiger:county": "Bergen, NJ",
        "tiger:name_base": "Bergen",
        "tiger:name_base_1": "United States Highway 9",
        "tiger:name_base_2": "United States Highway 46",
        "tiger:name_base_3": "United States Highway 1",
        "tiger:name_type": "Blvd",
        "tiger:reviewed": "no"
      },
      "geometry": {
        "type": "LineString",
        "coordinates": [
          [
            -73.9820383,
            40.8570038
          ],
          [
            -73.9823345,
            40.8567122
          ],
          [
            -73.982488,
            40.856561
          ],
          [
            -73.9830014,
            40.8560557
          ],
          [
            -73.9835651,
            40.8555007
          ]
        ]
      },
      "id": "way/360971117"
    },
    {
      "type": "Feature",
      "properties": {
        "@id": "way/360971118",
        "HFCS": "Urban Principal Arterial",
        "NHS": "yes",
        "NJDOT_SRI": "00000001",
        "expressway": "yes",
        "hgv": "designated",
        "hgv:state_network": "yes",
        "highway": "motorway",
        "lanes": "2",
        "maxspeed": "45 mph",
        "name": "Bergen Boulevard",
        "oneway": "yes",
        "ref": "US 1;US 9;US 46",
        "source:hgv:state_network": "NJDOT http://www.state.nj.us/transportation/about/rules/pdf/chapter32truckaccess.pdf",
        "surface": "asphalt",
        "tiger:cfcc": "A21",
        "tiger:county": "Bergen, NJ",
        "tiger:name_base": "United States Highway 1",
        "tiger:name_base_1": "United States Highway 9",
        "tiger:name_base_2": "United States Highway 46",
        "tiger:reviewed": "no"
      },
      "geometry": {
        "type": "LineString",
        "coordinates": [
          [
            -73.98161,
            40.8572496
          ],
          [
            -73.9815039,
            40.8573271
          ],
          [
            -73.9813972,
            40.8574008
          ],
          [
            -73.9812884,
            40.8574721
          ],
          [
            -73.9811751,
            40.8575424
          ],
          [
            -73.9811512,
            40.8575563
          ],
          [
            -73.9810594,
            40.8576096
          ],
          [
            -73.9809451,
            40.8576728
          ],
          [
            -73.9808294,
            40.8577329
          ],
          [
            -73.9807035,
            40.8577936
          ],
          [
            -73.9805822,
            40.857849
          ],
          [
            -73.9805046,
            40.857881
          ]
        ]
      },
      "id": "way/360971118"
    },
    {
      "type": "Feature",
      "properties": {
        "@id": "way/584512126",
        "HFCS": "Urban Principal Arterial",
        "NHS": "yes",
        "NJDOT_SRI": "00000001",
        "destination:lanes": "New Jersey Turnpike|New Jersey Turnpike|Broad Avenue",
        "destination:ref:lanes": "US 46 West|US 46 West|US 1 South;US 9 South",
        "destination:ref:to:lanes": "I 95;NJTP|I 95;NJTP|",
        "expressway": "yes",
        "hgv": "designated",
        "hgv:state_network": "yes",
        "highway": "motorway",
        "lanes": "3",
        "maxspeed": "45 mph",
        "oneway": "yes",
        "placement": "right_of:1",
        "ref": "US 1;US 9;US 46",
        "source:hgv:state_network": "NJDOT http://www.state.nj.us/transportation/about/rules/pdf/chapter32truckaccess.pdf",
        "surface": "asphalt",
        "tiger:name_base_2": "United States Highway 46",
        "turn:lanes": "||slight_right"
      },
      "geometry": {
        "type": "LineString",
        "coordinates": [
          [
            -73.9960823,
            40.8417594
          ],
          [
            -73.9963128,
            40.8416964
          ],
          [
            -73.9964473,
            40.8416667
          ],
          [
            -73.9965925,
            40.8416383
          ],
          [
            -73.9967305,
            40.8416158
          ],
          [
            -73.996872,
            40.8415959
          ]
        ]
      },
      "id": "way/584512126"
    },
    {
      "type": "Feature",
      "properties": {
        "@id": "way/837277524",
        "HFCS": "Urban Principal Arterial",
        "NHS": "yes",
        "NJDOT_SRI": "00000001",
        "expressway": "yes",
        "hgv": "designated",
        "hgv:state_network": "yes",
        "highway": "trunk",
        "lanes": "2",
        "maxspeed": "45 mph",
        "name": "Bergen Boulevard",
        "oneway": "yes",
        "ref": "US 1;US 9;US 46",
        "source:hgv:state_network": "NJDOT http://www.state.nj.us/transportation/about/rules/pdf/chapter32truckaccess.pdf",
        "surface": "asphalt",
        "tiger:cfcc": "A21",
        "tiger:county": "Bergen, NJ",
        "tiger:name_base": "United States Highway 1",
        "tiger:name_base_1": "United States Highway 9",
        "tiger:name_base_2": "United States Highway 46",
        "tiger:reviewed": "no"
      },
      "geometry": {
        "type": "LineString",
        "coordinates": [
          [
            -73.9816622,
            40.8572097
          ],
          [
            -73.98161,
            40.8572496
          ]
        ]
      },
      "id": "way/837277524"
    },
    {
      "type": "Feature",
      "properties": {
        "@id": "way/837277533",
        "HFCS": "Urban Principal Arterial",
        "NHS": "yes",
        "NJDOT_SRI": "00000001",
        "expressway": "yes",
        "hgv": "designated",
        "hgv:state_network": "yes",
        "highway": "trunk",
        "lanes": "2",
        "maxspeed": "45 mph",
        "name": "Bergen Boulevard",
        "oneway": "yes",
        "ref": "US 1;US 9;US 46",
        "source:hgv:state_network": "NJDOT http://www.state.nj.us/transportation/about/rules/pdf/chapter32truckaccess.pdf",
        "surface": "asphalt",
        "tiger:cfcc": "A21",
        "tiger:county": "Bergen, NJ",
        "tiger:name_base": "United States Highway 1",
        "tiger:name_base_1": "United States Highway 9",
        "tiger:name_base_2": "United States Highway 46",
        "tiger:reviewed": "no"
      },
      "geometry": {
        "type": "LineString",
        "coordinates": [
          [
            -73.9824125,
            40.8565159
          ],
          [
            -73.9823048,
            40.8566214
          ],
          [
            -73.9821751,
            40.85675
          ],
          [
            -73.9820852,
            40.8568382
          ],
          [
            -73.9819916,
            40.8569276
          ],
          [
            -73.9819034,
            40.8570087
          ],
          [
            -73.981842,
            40.8570628
          ],
          [
            -73.9818085,
            40.8570911
          ],
          [
            -73.9817106,
            40.8571719
          ],
          [
            -73.9816622,
            40.8572097
          ]
        ]
      },
      "id": "way/837277533"
    },
    {
      "type": "Feature",
      "properties": {
        "@id": "way/837277538",
        "HFCS": "Urban Principal Arterial",
        "NHS": "yes",
        "NJDOT_SRI": "00000001",
        "expressway": "yes",
        "hgv": "designated",
        "hgv:state_network": "yes",
        "highway": "trunk",
        "lanes": "3",
        "maxspeed": "45 mph",
        "name": "Bergen Boulevard",
        "oneway": "yes",
        "placement": "right_of:1",
        "ref": "US 1;US 9;US 46",
        "source:hgv:state_network": "NJDOT http://www.state.nj.us/transportation/about/rules/pdf/chapter32truckaccess.pdf",
        "surface": "asphalt",
        "tiger:cfcc": "A25",
        "tiger:county": "Bergen, NJ",
        "tiger:name_base": "Bergen",
        "tiger:name_base_1": "United States Highway 9",
        "tiger:name_base_2": "United States Highway 46",
        "tiger:name_base_3": "United States Highway 1",
        "tiger:name_type": "Blvd",
        "tiger:reviewed": "no",
        "turn:lanes": "||slight_right"
      },
      "geometry": {
        "type": "LineString",
        "coordinates": [
          [
            -73.9843052,
            40.8546445
          ],
          [
            -73.9843277,
            40.8546105
          ],
          [
            -73.9843875,
            40.8545128
          ],
          [
            -73.9843955,
            40.854499
          ],
          [
            -73.9844463,
            40.8544106
          ],
          [
            -73.9845003,
            40.8543085
          ],
          [
            -73.9845518,
            40.8542039
          ],
          [
            -73.9845981,
            40.8540996
          ],
          [
            -73.9846125,
            40.8540647
          ],
          [
            -73.9846406,
            40.8539927
          ],
          [
            -73.9846794,
            40.8538879
          ]
        ]
      },
      "id": "way/837277538"
    },
    {
      "type": "Feature",
      "properties": {
        "@id": "way/961981711",
        "HFCS": "Urban Principal Arterial",
        "NHS": "yes",
        "NJDOT_SRI": "00000001",
        "embankment": "yes",
        "expressway": "yes",
        "hgv": "designated",
        "hgv:state_network": "yes",
        "highway": "motorway",
        "lanes": "2",
        "maxspeed": "45 mph",
        "oneway": "yes",
        "ref": "US 1;US 9;US 46",
        "source:hgv:state_network": "NJDOT http://www.state.nj.us/transportation/about/rules/pdf/chapter32truckaccess.pdf",
        "surface": "asphalt",
        "tiger:name_base_2": "United States Highway 46",
        "tiger:name_base_3": "United States Highway 1"
      },
      "geometry": {
        "type": "LineString",
        "coordinates": [
          [
            -73.9884627,
            40.8485679
          ],
          [
            -73.9894932,
            40.8475433
          ],
          [
            -73.9905278,
            40.8465095
          ]
        ]
      },
      "id": "way/961981711"
    },
    {
      "type": "Feature",
      "properties": {
        "@id": "way/967579317",
        "HFCS": "Urban Principal Arterial",
        "NHS": "yes",
        "NJDOT_SRI": "00000001",
        "expressway": "yes",
        "hgv": "designated",
        "hgv:state_network": "yes",
        "highway": "motorway",
        "lanes": "2",
        "maxspeed": "45 mph",
        "name": "Bergen Boulevard",
        "oneway": "yes",
        "ref": "US 1;US 9;US 46",
        "source:hgv:state_network": "NJDOT http://www.state.nj.us/transportation/about/rules/pdf/chapter32truckaccess.pdf",
        "surface": "asphalt",
        "tiger:cfcc": "A25",
        "tiger:county": "Bergen, NJ",
        "tiger:name_base": "Bergen",
        "tiger:name_base_1": "United States Highway 9",
        "tiger:name_base_2": "United States Highway 46",
        "tiger:name_base_3": "United States Highway 1",
        "tiger:name_type": "Blvd",
        "tiger:reviewed": "no"
      },
      "geometry": {
        "type": "LineString",
        "coordinates": [
          [
            -73.9788065,
            40.8584099
          ],
          [
            -73.9789483,
            40.858392
          ],
          [
            -73.9791004,
            40.8583689
          ],
          [
            -73.9792461,
            40.8583438
          ],
          [
            -73.979391,
            40.858315
          ],
          [
            -73.9795379,
            40.8582826
          ],
          [
            -73.979674,
            40.8582491
          ],
          [
            -73.9798132,
            40.8582113
          ],
          [
            -73.9799589,
            40.8581681
          ],
          [
            -73.9800908,
            40.8581258
          ],
          [
            -73.980227,
            40.8580779
          ],
          [
            -73.9803471,
            40.8580325
          ],
          [
            -73.980377,
            40.8580198
          ]
        ]
      },
      "id": "way/967579317"
    },
    {
      "type": "Feature",
      "properties": {
        "@id": "way/967901075",
        "HFCS": "Urban Principal Arterial",
        "NHS": "yes",
        "NJDOT_SRI": "00000001",
        "expressway": "yes",
        "hgv": "designated",
        "hgv:state_network": "yes",
        "highway": "motorway",
        "lanes": "3",
        "maxspeed": "45 mph",
        "oneway": "yes",
        "ref": "US 1;US 9;US 46",
        "source:hgv:state_network": "NJDOT http://www.state.nj.us/transportation/about/rules/pdf/chapter32truckaccess.pdf",
        "surface": "asphalt"
      },
      "geometry": {
        "type": "LineString",
        "coordinates": [
          [
            -73.9958323,
            40.8417377
          ],
          [
            -73.9957179,
            40.8417814
          ],
          [
            -73.9955882,
            40.8418311
          ],
          [
            -73.9954693,
            40.84188
          ],
          [
            -73.9953568,
            40.8419309
          ],
          [
            -73.9952507,
            40.8419811
          ],
          [
            -73.9951636,
            40.8420267
          ],
          [
            -73.9950741,
            40.842075
          ],
          [
            -73.9949769,
            40.8421283
          ],
          [
            -73.9948914,
            40.8421819
          ],
          [
            -73.9947987,
            40.842242
          ],
          [
            -73.9947046,
            40.8423056
          ],
          [
            -73.9946056,
            40.8423751
          ],
          [
            -73.9945166,
            40.842441
          ]
        ]
      },
      "id": "way/967901075"
    },
    {
      "type": "Feature",
      "properties": {
        "@id": "way/968081116",
        "HFCS": "Urban Principal Arterial",
        "NHS": "yes",
        "NJDOT_SRI": "00000001",
        "destination": "New York",
        "destination:ref": "US 1 North;US 9 North;US 46 East",
        "expressway": "yes",
        "hgv": "designated",
        "hgv:state_network": "yes",
        "highway": "motorway",
        "lanes": "2",
        "maxspeed": "45 mph",
        "oneway": "yes",
        "ref": "US 1;US 9;US 46",
        "source:hgv:state_network": "NJDOT http://www.state.nj.us/transportation/about/rules/pdf/chapter32truckaccess.pdf",
        "tiger:cfcc": "A21",
        "tiger:county": "Bergen, NJ",
        "tiger:name_base": "United States Highway 1",
        "tiger:name_base_1": "United States Highway 9",
        "tiger:name_base_2": "United States Highway 46"
      },
      "geometry": {
        "type": "LineString",
        "coordinates": [
          [
            -73.9862962,
            40.8505814
          ],
          [
            -73.9859835,
            40.8508983
          ],
          [
            -73.9855348,
            40.851353
          ]
        ]
      },
      "id": "way/968081116"
    },
    {
      "type": "Feature",
      "properties": {
        "@id": "way/968081117",
        "HFCS": "Urban Principal Arterial",
        "NHS": "yes",
        "NJDOT_SRI": "00000001",
        "destination:lanes": "New York|New York;none",
        "expressway": "yes",
        "hgv": "designated",
        "hgv:state_network": "yes",
        "highway": "motorway",
        "lanes": "2",
        "maxspeed": "45 mph",
        "oneway": "yes",
        "ref": "US 1;US 9;US 46",
        "source:hgv:state_network": "NJDOT http://www.state.nj.us/transportation/about/rules/pdf/chapter32truckaccess.pdf",
        "tiger:name_base_2": "United States Highway 46",
        "turn:lanes": "none|through;slight_right"
      },
      "geometry": {
        "type": "LineString",
        "coordinates": [
          [
            -73.9865045,
            40.8503703
          ],
          [
            -73.9862962,
            40.8505814
          ]
        ]
      },
      "id": "way/968081117"
    },
    {
      "type": "Feature",
      "properties": {
        "@id": "way/1050247346",
        "HFCS": "Urban Principal Arterial",
        "NHS": "yes",
        "NJDOT_SRI": "00000001",
        "expressway": "yes",
        "hgv": "designated",
        "hgv:state_network": "yes",
        "highway": "motorway",
        "lanes": "2",
        "maxspeed": "45 mph",
        "oneway": "yes",
        "ref": "US 1;US 9;US 46",
        "source:hgv:state_network": "NJDOT http://www.state.nj.us/transportation/about/rules/pdf/chapter32truckaccess.pdf",
        "surface": "asphalt",
        "tiger:cfcc": "A25",
        "tiger:county": "Bergen, NJ",
        "tiger:name_base": "Bergen",
        "tiger:name_base_1": "United States Highway 9",
        "tiger:name_base_2": "United States Highway 46",
        "tiger:name_base_3": "United States Highway 1",
        "tiger:name_type": "Blvd",
        "turn:lanes": "|through;right"
      },
      "geometry": {
        "type": "LineString",
        "coordinates": [
          [
            -73.9855636,
            40.8514479
          ],
          [
            -73.98588,
            40.8511342
          ]
        ]
      },
      "id": "way/1050247346"
    },
    {
      "type": "Feature",
      "properties": {
        "@id": "way/1086752465",
        "HFCS": "Urban Principal Arterial",
        "NHS": "yes",
        "NJDOT_SRI": "00000001",
        "expressway": "yes",
        "hgv": "designated",
        "hgv:state_network": "yes",
        "highway": "trunk",
        "lanes": "2",
        "maxheight": "13'8\"",
        "maxspeed": "45 mph",
        "name": "Bergen Boulevard",
        "oneway": "yes",
        "ref": "US 1;US 9;US 46",
        "source:hgv:state_network": "NJDOT http://www.state.nj.us/transportation/about/rules/pdf/chapter32truckaccess.pdf",
        "surface": "asphalt",
        "tiger:cfcc": "A25",
        "tiger:county": "Bergen, NJ",
        "tiger:name_base": "Bergen",
        "tiger:name_base_1": "United States Highway 9",
        "tiger:name_base_2": "United States Highway 46",
        "tiger:name_base_3": "United States Highway 1",
        "tiger:name_type": "Blvd",
        "tiger:reviewed": "no"
      },
      "geometry": {
        "type": "LineString",
        "coordinates": [
          [
            -73.9835651,
            40.8555007
          ],
          [
            -73.9837103,
            40.8553579
          ],
          [
            -73.9837962,
            40.8552712
          ],
          [
            -73.9838841,
            40.8551797
          ],
          [
            -73.9839641,
            40.855092
          ],
          [
            -73.9840455,
            40.8549965
          ],
          [
            -73.9841201,
            40.8549039
          ],
          [
            -73.9841384,
            40.8548806
          ]
        ]
      },
      "id": "way/1086752465"
    },
    {
      "type": "Feature",
      "properties": {
        "@id": "way/1086752466",
        "HFCS": "Urban Principal Arterial",
        "NHS": "yes",
        "NJDOT_SRI": "00000001",
        "expressway": "yes",
        "hgv": "designated",
        "hgv:state_network": "yes",
        "highway": "trunk",
        "lanes": "2",
        "maxspeed": "45 mph",
        "name": "Bergen Boulevard",
        "oneway": "yes",
        "ref": "US 1;US 9;US 46",
        "source:hgv:state_network": "NJDOT http://www.state.nj.us/transportation/about/rules/pdf/chapter32truckaccess.pdf",
        "surface": "asphalt",
        "tiger:cfcc": "A21",
        "tiger:county": "Bergen, NJ",
        "tiger:name_base": "United States Highway 1",
        "tiger:name_base_1": "United States Highway 9",
        "tiger:name_base_2": "United States Highway 46",
        "tiger:reviewed": "no"
      },
      "geometry": {
        "type": "LineString",
        "coordinates": [
          [
            -73.9835757,
            40.8553684
          ],
          [
            -73.983105,
            40.8558316
          ],
          [
            -73.9829315,
            40.8560025
          ],
          [
            -73.9824125,
            40.8565159
          ]
        ]
      },
      "id": "way/1086752466"
    },
    {
      "type": "Feature",
      "properties": {
        "@id": "way/1086752467",
        "HFCS": "Urban Principal Arterial",
        "NHS": "yes",
        "NJDOT_SRI": "00000001",
        "expressway": "yes",
        "hgv": "designated",
        "hgv:state_network": "yes",
        "highway": "trunk",
        "lanes": "2",
        "maxheight": "13'8\"",
        "maxspeed": "45 mph",
        "name": "Bergen Boulevard",
        "oneway": "yes",
        "ref": "US 1;US 9;US 46",
        "source:hgv:state_network": "NJDOT http://www.state.nj.us/transportation/about/rules/pdf/chapter32truckaccess.pdf",
        "surface": "asphalt",
        "tiger:cfcc": "A21",
        "tiger:county": "Bergen, NJ",
        "tiger:name_base": "United States Highway 1",
        "tiger:name_base_1": "United States Highway 9",
        "tiger:name_base_2": "United States Highway 46",
        "tiger:reviewed": "no"
      },
      "geometry": {
        "type": "LineString",
        "coordinates": [
          [
            -73.9841725,
            40.8546823
          ],
          [
            -73.9841387,
            40.8547307
          ],
          [
            -73.9840748,
            40.8548164
          ],
          [
            -73.9840001,
            40.854911
          ],
          [
            -73.9839247,
            40.8550037
          ],
          [
            -73.9838396,
            40.8550991
          ],
          [
            -73.9837593,
            40.8551845
          ],
          [
            -73.9836736,
            40.8552717
          ],
          [
            -73.9835757,
            40.8553684
          ]
        ]
      },
      "id": "way/1086752467"
    },
    {
      "type": "Feature",
      "properties": {
        "@id": "way/1106503313",
        "destination": "George Washington Bridge Upper Level",
        "destination:ref:to": "I 95 Toll North",
        "highway": "motorway",
        "lanes": "1",
        "maxspeed": "45 mph",
        "maxspeed:variable": "yes",
        "oneway": "yes",
        "ref": "US 1;US 9;US 46"
      },
      "geometry": {
        "type": "LineString",
        "coordinates": [
          [
            -73.9744717,
            40.8575105
          ],
          [
            -73.974269,
            40.8574199
          ],
          [
            -73.9738736,
            40.8572032
          ],
          [
            -73.9737072,
            40.857115
          ],
          [
            -73.9735447,
            40.8570274
          ],
          [
            -73.9734164,
            40.8569599
          ],
          [
            -73.973296,
            40.8568931
          ],
          [
            -73.9731695,
            40.8568209
          ],
          [
            -73.9730686,
            40.8567602
          ],
          [
            -73.9729868,
            40.856707
          ],
          [
            -73.9726494,
            40.8564877
          ],
          [
            -73.9723123,
            40.8563497
          ]
        ]
      },
      "id": "way/1106503313"
    },
    {
      "type": "Feature",
      "properties": {
        "@id": "way/1110192138",
        "HFCS": "Urban Principal Arterial",
        "NHS": "yes",
        "NJDOT_SRI": "00000001",
        "hgv": "designated",
        "hgv:state_network": "yes",
        "highway": "motorway",
        "lanes": "1",
        "maxheight:signed": "no",
        "maxspeed": "45 mph",
        "maxspeed:variable": "yes",
        "oneway": "yes",
        "ref": "US 1;US 9;US 46",
        "source:hgv:state_network": "NJDOT http://www.state.nj.us/transportation/about/rules/pdf/chapter32truckaccess.pdf",
        "toll": "no"
      },
      "geometry": {
        "type": "LineString",
        "coordinates": [
          [
            -73.9744717,
            40.8575105
          ],
          [
            -73.9742893,
            40.8573926
          ],
          [
            -73.9739848,
            40.8572269
          ],
          [
            -73.9738092,
            40.8571318
          ],
          [
            -73.9736835,
            40.8570618
          ],
          [
            -73.9736139,
            40.8570239
          ],
          [
            -73.9735388,
            40.856983
          ],
          [
            -73.9734564,
            40.8569342
          ],
          [
            -73.9733844,
            40.8568883
          ],
          [
            -73.9733065,
            40.8568358
          ],
          [
            -73.9732286,
            40.8567832
          ],
          [
            -73.9729743,
            40.8565533
          ]
        ]
      },
      "id": "way/1110192138"
    },
    {
      "type": "Feature",
      "properties": {
        "@id": "way/1233392303",
        "HFCS": "Urban Principal Arterial",
        "NHS": "yes",
        "NJDOT_SRI": "00000001",
        "expressway": "yes",
        "hgv": "designated",
        "hgv:state_network": "yes",
        "highway": "trunk",
        "lanes": "2",
        "maxspeed": "45 mph",
        "name": "Bergen Boulevard",
        "oneway": "yes",
        "ref": "US 1;US 9;US 46",
        "source:hgv:state_network": "NJDOT http://www.state.nj.us/transportation/about/rules/pdf/chapter32truckaccess.pdf",
        "surface": "asphalt",
        "tiger:cfcc": "A25",
        "tiger:county": "Bergen, NJ",
        "tiger:name_base": "Bergen",
        "tiger:name_base_1": "United States Highway 9",
        "tiger:name_base_2": "United States Highway 46",
        "tiger:name_base_3": "United States Highway 1",
        "tiger:name_type": "Blvd",
        "tiger:reviewed": "no"
      },
      "geometry": {
        "type": "LineString",
        "coordinates": [
          [
            -73.9841384,
            40.8548806
          ],
          [
            -73.9841932,
            40.8548073
          ],
          [
            -73.9842614,
            40.8547108
          ],
          [
            -73.9843052,
            40.8546445
          ]
        ]
      },
      "id": "way/1233392303"
    },
    {
      "type": "Feature",
      "properties": {
        "@id": "way/1297367463",
        "HFCS": "Urban Principal Arterial",
        "NHS": "yes",
        "NJDOT_SRI": "00000001",
        "bridge": "yes",
        "expressway": "yes",
        "hgv": "designated",
        "hgv:state_network": "yes",
        "highway": "motorway",
        "lanes": "3",
        "layer": "1",
        "maxspeed": "45 mph",
        "name": "Bergen Boulevard",
        "oneway": "yes",
        "ref": "US 1;US 9;US 46",
        "source:hgv:state_network": "NJDOT http://www.state.nj.us/transportation/about/rules/pdf/chapter32truckaccess.pdf",
        "surface": "concrete",
        "tiger:cfcc": "A25",
        "tiger:county": "Bergen, NJ",
        "tiger:name_base": "Bergen",
        "tiger:name_base_1": "United States Highway 9",
        "tiger:name_base_2": "United States Highway 46",
        "tiger:name_base_3": "United States Highway 1",
        "tiger:name_type": "Blvd",
        "toll": "no"
      },
      "geometry": {
        "type": "LineString",
        "coordinates": [
          [
            -73.9755171,
            40.858936
          ],
          [
            -73.9755944,
            40.8589471
          ],
          [
            -73.9756657,
            40.8589558
          ],
          [
            -73.9757431,
            40.8589625
          ]
        ]
      },
      "id": "way/1297367463"
    },
    {
      "type": "Feature",
      "properties": {
        "@id": "way/1370439359",
        "HFCS": "Urban Principal Arterial",
        "NHS": "yes",
        "NJDOT_SRI": "00000001",
        "expressway": "yes",
        "hgv": "designated",
        "hgv:state_network": "yes",
        "highway": "trunk",
        "lane_markings": "yes",
        "lanes": "3",
        "maxspeed": "45 mph",
        "name": "Bergen Boulevard",
        "oneway": "yes",
        "placement": "left_of:2",
        "ref": "US 1;US 9;US 46",
        "shoulder": "no",
        "source:hgv:state_network": "NJDOT http://www.state.nj.us/transportation/about/rules/pdf/chapter32truckaccess.pdf",
        "surface": "asphalt",
        "tiger:cfcc": "A21",
        "tiger:county": "Bergen, NJ",
        "tiger:name_base": "United States Highway 1",
        "tiger:name_base_1": "United States Highway 9",
        "tiger:name_base_2": "United States Highway 46",
        "tiger:reviewed": "no",
        "turn:lanes": "||merge_to_left"
      },
      "geometry": {
        "type": "LineString",
        "coordinates": [
          [
            -73.9847965,
            40.8527665
          ],
          [
            -73.9847668,
            40.8529802
          ]
        ]
      },
      "id": "way/1370439359"
    }
  ]
}
