{"type":"FeatureCollection","features":[

{"type":"Feature","geometry":{"type":"LineString","coordinates":[[-104.48031,36.99385],[-104.48026,36.99427],[-104.48036,36.9948],[-104.48059,36.99549],[-104.48092,36.99597],[-104.48197,36.99728],[-104.48224,36.99779],[-104.48235,36.99813],[-104.48238,36.99877],[-104.48233,36.99926],[-104.47989,37.00716],[-104.47979,37.00822],[-104.47995,37.00919],[-104.48037,37.01044],[-104.48252,37.01636],[-104.48291,37.01699],[-104.48329,37.01747],[-104.48384,37.01796],[-104.48494,37.01865],[-104.48599,37.01903],[-104.49053,37.02045],[-104.4916,37.02077],[-104.49463,37.02148],[-104.4955,37.02182],[-104.49582,37.02199],[-104.49655,37.02256],[-104.49707,37.02335],[-104.4972,37.02372],[-104.49749,37.02541],[-104.49767,37.0259],[-104.49791,37.02637],[-104.49819,37.02677],[-104.49926,37.02774],[-104.49968,37.02822],[-104.49997,37.02872],[-104.50013,37.02917],[-104.50044,37.03067],[-104.50066,37.03118],[-104.50092,37.03157],[-104.5014,37.03205],[-104.50643,37.03609],[-104.50846,37.03784],[-104.51077,37.04015],[-104.5119,37.04111],[-104.51976,37.04726],[-104.52085,37.04838],[-104.52139,37.04914],[-104.52181,37.04993],[-104.52211,37.05065],[-104.52229,37.05118],[-104.52253,37.05236],[-104.52256,37.0532],[-104.5224,37.05762],[-104.52255,37.05841],[-104.5229,37.05965],[-104.52294,37.0601],[-104.52281,37.06086],[-104.52245,37.0616],[-104.52214,37.06195],[-104.5203,37.06359],[-104.51988,37.06404],[-104.51936,37.0647],[-104.51873,37.06576],[-104.51831,37.06691],[-104.51734,37.07017],[-104.51709,37.07146],[-104.51705,37.07204],[-104.51708,37.07323],[-104.51715,37.07381],[-104.51763,37.07474],[-104.51859,37.07796],[-104.51879,37.07938],[-104.51886,37.08074],[-104.51899,37.08134],[-104.51924,37.08208],[-104.51953,37.08274],[-104.51998,37.08346],[-104.52162,37.08549],[-104.52192,37.08591],[-104.5223,37.08704],[-104.52233,37.08791],[-104.52227,37.08821],[-104.52214,37.08865],[-104.52176,37.08937],[-104.51982,37.09145],[-104.51931,37.09223],[-104.51914,37.09262],[-104.51891,37.09341],[-104.51882,37.09409],[-104.51882,37.09444],[-104.51892,37.09521],[-104.51915,37.09595],[-104.51962,37.09682],[-104.52381,37.10273],[-104.52417,37.10355],[-104.52433,37.10448],[-104.52433,37.10525],[-104.52406,37.10638],[-104.52262,37.10942],[-104.52171,37.11153],[-104.52115,37.11349],[-104.52079,37.11542],[-104.52031,37.12229],[-104.52017,37.12559],[-104.52033,37.12735],[-104.52133,37.13262],[-104.52137,37.13333],[-104.52123,37.13441],[-104.52098,37.13523],[-104.51973,37.14061],[-104.51956,37.14173],[-104.51949,37.14571],[-104.5195,37.15304],[-104.51944,37.15404],[-104.51931,37.15464],[-104.51905,37.15543],[-104.51841,37.1566],[-104.5177,37.15757],[-104.51583,37.15964],[-104.51471,37.16104],[-104.51432,37.16159],[-104.51226,37.16495],[-104.51174,37.16626],[-104.51149,37.16719],[-104.51094,37.17026],[-104.51078,37.17079],[-104.51049,37.17131],[-104.51001,37.17179],[-104.50859,37.1729],[-104.50788,37.17353],[-104.50569,37.17581],[-104.50341,37.17797],[-104.49928,37.18146],[-104.49886,37.18196],[-104.49842,37.18273],[-104.49826,37.18331],[-104.49813,37.18423],[-104.49774,37.18854],[-104.49733,37.19459],[-104.4972,37.19567],[-104.49561,37.20558],[-104.49449,37.21191],[-104.49169,37.22888],[-104.49166,37.23054],[-104.49173,37.23149],[-104.49182,37.2321],[-104.4921,37.23339],[-104.49247,37.23457],[-104.49395,37.23809],[-104.49443,37.2391],[-104.495,37.23999],[-104.49559,37.24068],[-104.49781,37.24288],[-104.49822,37.24345],[-104.49864,37.24425],[-104.4989,37.24512],[-104.5009,37.25497],[-104.50116,37.25595],[-104.50314,37.26166],[-104.50334,37.2624],[-104.50507,37.26731],[-104.50541,37.2681],[-104.50824,37.27357],[-104.50871,37.27436],[-104.51367,37.28093],[-104.51516,37.28284],[-104.51582,37.28358],[-104.51641,37.28416],[-104.52224,37.28953],[-104.52365,37.29077],[-104.53295,37.29937],[-104.54409,37.30954],[-104.54522,37.31063],[-104.54731,37.31246],[-104.54959,37.31462],[-104.55242,37.31716],[-104.55622,37.32077],[-104.5568,37.32149],[-104.55809,37.32358],[-104.56294,37.33198],[-104.568,37.34061],[-104.56848,37.34151],[-104.57032,37.34455],[-104.57521,37.35292],[-104.57604,37.35398],[-104.58538,37.36418],[-104.58851,37.36766],[-104.60041,37.38045],[-104.6013,37.38134],[-104.60356,37.38391],[-104.61573,37.39704],[-104.61979,37.40152],[-104.62307,37.40552],[-104.63504,37.42152],[-104.64057,37.42902],[-104.64106,37.42985],[-104.64756,37.44236],[-104.65196,37.45095],[-104.65824,37.463],[-104.66162,37.46958],[-104.6619,37.47024],[-104.66268,37.47251],[-104.66416,37.47713],[-104.66497,37.47993],[-104.66578,37.48247],[-104.6705,37.49655],[-104.67089,37.49731],[-104.67239,37.4999],[-104.67388,37.50227],[-104.67495,37.50386],[-104.67536,37.50434],[-104.67588,37.50484],[-104.67701,37.50573],[-104.67936,37.50703],[-104.68617,37.51031],[-104.68759,37.51112],[-104.68869,37.51179],[-104.68998,37.51279],[-104.69085,37.51353],[-104.69207,37.51482],[-104.69294,37.51594],[-104.69393,37.51738],[-104.69805,37.52339],[-104.70028,37.52673],[-104.70465,37.533],[-104.71064,37.5418],[-104.71215,37.54409],[-104.71357,37.54608],[-104.7156,37.54914],[-104.74472,37.59481],[-104.75524,37.61154],[-104.7576,37.61523],[-104.75939,37.6179],[-104.76101,37.62057],[-104.76438,37.62575],[-104.76577,37.62801],[-104.76902,37.63301],[-104.76986,37.63441],[-104.77134,37.63663],[-104.77234,37.63779],[-104.77358,37.63908],[-104.7795,37.64468],[-104.78607,37.65076],[-104.79447,37.65864],[-104.79508,37.6593],[-104.79598,37.66043],[-104.79676,37.66162],[-104.79737,37.66275],[-104.80368,37.67742],[-104.80477,37.68014],[-104.80648,37.68415],[-104.80803,37.68764],[-104.8095,37.69134],[-104.81144,37.69596],[-104.81844,37.71229],[-104.82385,37.72518],[-104.83521,37.75149],[-104.8355,37.75248],[-104.83558,37.75299],[-104.83563,37.75431],[-104.83531,37.76118],[-104.83512,37.76368],[-104.8349,37.76799],[-104.83445,37.77103],[-104.82855,37.8017],[-104.82842,37.8026],[-104.82852,37.81847],[-104.82864,37.85757],[-104.82869,37.86051],[-104.82866,37.86887],[-104.82877,37.87786],[-104.82872,37.87823],[-104.82875,37.88861],[-104.82884,37.9065],[-104.82879,37.90881],[-104.82866,37.90977],[-104.82846,37.91064],[-104.82801,37.91214],[-104.82769,37.91294],[-104.82009,37.92923],[-104.81703,37.93563],[-104.81651,37.93637],[-104.81584,37.93701],[-104.81536,37.93737],[-104.81484,37.93766],[-104.81369,37.93809],[-104.81301,37.93825],[-104.80931,37.93888],[-104.80831,37.93917],[-104.80782,37.93938],[-104.80706,37.93983],[-104.80661,37.9402],[-104.80606,37.94081],[-104.80577,37.94126],[-104.80555,37.94173],[-104.80397,37.94609],[-104.80011,37.95631],[-104.79974,37.95705],[-104.79885,37.95843],[-104.79711,37.96052],[-104.79644,37.9612],[-104.79325,37.96397],[-104.78797,37.9687],[-104.78112,37.97472],[-104.77995,37.97592],[-104.77928,37.97673],[-104.77572,37.98183],[-104.77496,37.98278],[-104.77426,37.98354],[-104.7687,37.98889],[-104.76278,37.99404],[-104.75849,37.99766],[-104.75647,37.99956],[-104.75502,38.00119],[-104.74771,38.00976],[-104.74446,38.01366],[-104.73284,38.02735],[-104.73236,38.02798],[-104.73181,38.02883],[-104.73107,38.03023],[-104.7304,38.032],[-104.73016,38.03292],[-104.73,38.03382],[-104.72969,38.03718],[-104.72949,38.03847],[-104.72898,38.04016],[-104.72839,38.04156],[-104.72757,38.04301],[-104.7254,38.04605],[-104.72479,38.04707],[-104.72442,38.04781],[-104.72212,38.0535],[-104.72149,38.05464],[-104.72084,38.05561],[-104.72004,38.05662],[-104.71537,38.06182],[-104.71449,38.06312],[-104.70755,38.07556],[-104.70735,38.07584],[-104.70674,38.07704],[-104.7061,38.07812],[-104.70507,38.07944],[-104.70446,38.08013],[-104.68274,38.10366],[-104.67505,38.11188],[-104.67375,38.11346],[-104.67283,38.11489],[-104.67234,38.11587],[-104.67195,38.11681],[-104.6716,38.11782],[-104.67127,38.11927],[-104.66993,38.1277],[-104.66964,38.12865],[-104.66909,38.12976],[-104.66442,38.13592],[-104.65515,38.14796],[-104.64549,38.15845],[-104.64234,38.16191],[-104.64151,38.16297],[-104.64035,38.16466],[-104.6359,38.17124],[-104.6352,38.17255],[-104.63465,38.17379],[-104.63439,38.17462],[-104.63414,38.17578],[-104.63361,38.18119],[-104.63233,38.19607],[-104.63217,38.19707],[-104.63195,38.1981],[-104.6315,38.1995],[-104.62861,38.20776],[-104.62812,38.20932],[-104.62758,38.21041],[-104.62689,38.21139],[-104.62323,38.21516],[-104.62132,38.21683],[-104.61885,38.21889],[-104.61652,38.22074],[-104.6157,38.22151],[-104.61528,38.22203],[-104.6147,38.2229],[-104.6145,38.2233],[-104.61425,38.22396],[-104.61405,38.22488],[-104.61396,38.22594],[-104.61399,38.22858],[-104.61393,38.2293],[-104.61389,38.23154],[-104.61379,38.23233],[-104.61356,38.23305],[-104.61216,38.23606],[-104.61186,38.23751],[-104.6118,38.23893],[-104.61184,38.23991],[-104.61196,38.24045],[-104.61226,38.24142],[-104.61235,38.24194],[-104.61232,38.24245],[-104.61187,38.24417],[-104.61193,38.24697],[-104.6119,38.24745],[-104.61181,38.24787],[-104.61165,38.24818],[-104.61038,38.24977],[-104.61013,38.25011],[-104.60993,38.25051],[-104.60971,38.25128],[-104.60958,38.25252],[-104.60942,38.25305],[-104.60916,38.25355],[-104.6078,38.25519],[-104.60619,38.2569],[-104.60571,38.25751],[-104.60527,38.25825],[-104.60523,38.26227],[-104.60514,38.26318],[-104.60482,38.26549],[-104.60475,38.26693],[-104.60511,38.26871],[-104.60517,38.26979],[-104.60508,38.27037],[-104.60487,38.27109],[-104.60388,38.27341],[-104.60384,38.2737],[-104.60385,38.27489],[-104.60401,38.27661],[-104.60475,38.27813],[-104.60517,38.27949],[-104.60521,38.27998],[-104.60514,38.28159],[-104.60517,38.28466],[-104.60545,38.28572],[-104.60619,38.28788],[-104.60717,38.29052],[-104.60951,38.29489],[-104.61071,38.29657],[-104.61118,38.29732],[-104.61163,38.29824],[-104.61187,38.29896],[-104.61263,38.30332],[-104.61311,38.30503],[-104.61364,38.30748],[-104.61412,38.31005],[-104.61473,38.31269],[-104.61528,38.31707],[-104.61554,38.32455],[-104.61608,38.32675],[-104.61917,38.33626],[-104.61961,38.33808],[-104.61975,38.3395],[-104.61975,38.34421],[-104.61985,38.34664],[-104.62068,38.3615],[-104.62068,38.36463],[-104.62056,38.36687],[-104.62032,38.36937],[-104.61911,38.37884],[-104.61876,38.38111],[-104.61868,38.38264],[-104.61878,38.38449],[-104.61969,38.38956],[-104.61981,38.39098],[-104.61979,38.39176],[-104.61963,38.39339],[-104.61927,38.395],[-104.60961,38.42047],[-104.60826,38.42411],[-104.60807,38.4248],[-104.60784,38.42583],[-104.60749,38.4281],[-104.60691,38.4327],[-104.6064,38.43627],[-104.60617,38.43885],[-104.60565,38.44672],[-104.60562,38.44788],[-104.60613,38.45294],[-104.60627,38.45383],[-104.6069,38.4561],[-104.61499,38.47555],[-104.61599,38.47776],[-104.62042,38.48709],[-104.62181,38.49021],[-104.62523,38.49745],[-104.62587,38.49892],[-104.62619,38.49993],[-104.62641,38.5009],[-104.62918,38.5154],[-104.62964,38.51691],[-104.6303,38.51837],[-104.63693,38.53134],[-104.6444,38.54624],[-104.64613,38.54949],[-104.647,38.55128],[-104.65283,38.56444],[-104.65621,38.57125],[-104.65676,38.57207],[-104.66497,38.58075],[-104.66678,38.58271],[-104.66719,38.58326],[-104.6678,38.58433],[-104.67767,38.60247],[-104.68002,38.60617],[-104.68119,38.60784],[-104.68612,38.61452],[-104.68683,38.61554],[-104.68744,38.61666],[-104.68792,38.61764],[-104.68846,38.61936],[-104.68972,38.62501],[-104.69387,38.64431],[-104.69407,38.64493],[-104.70017,38.66032],[-104.70085,38.66202],[-104.70134,38.66307],[-104.70204,38.66423],[-104.70655,38.67012],[-104.71228,38.67747],[-104.71331,38.67908],[-104.71347,38.6794],[-104.71842,38.69007],[-104.7201,38.69385],[-104.72042,38.69487],[-104.72322,38.70645],[-104.72467,38.71007],[-104.72827,38.71865],[-104.72866,38.71955],[-104.72953,38.72113],[-104.73046,38.72246],[-104.73137,38.72351],[-104.74093,38.733],[-104.74218,38.73418],[-104.764,38.75571],[-104.76544,38.7569],[-104.77066,38.76068],[-104.77253,38.7621],[-104.77352,38.76292],[-104.77487,38.76417],[-104.7761,38.7654],[-104.77689,38.76628],[-104.77848,38.76826],[-104.77973,38.77011],[-104.78051,38.77142],[-104.78167,38.77376],[-104.78279,38.77647],[-104.7837,38.77804],[-104.78439,38.77899],[-104.78492,38.77962],[-104.79395,38.79032],[-104.79505,38.79177],[-104.79557,38.79254],[-104.79614,38.79362],[-104.7974,38.79629],[-104.7991,38.79954],[-104.79937,38.80009],[-104.79942,38.8003],[-104.80055,38.80246],[-104.80146,38.80387],[-104.80251,38.80509],[-104.80371,38.8063],[-104.80442,38.80691],[-104.8096,38.81074],[-104.81282,38.81293],[-104.81439,38.8137],[-104.81587,38.81424],[-104.81732,38.8146],[-104.81865,38.81483],[-104.8197,38.81494],[-104.82539,38.81523],[-104.82662,38.81539],[-104.82734,38.81552],[-104.8282,38.81575],[-104.82917,38.81607],[-104.83003,38.81646],[-104.83148,38.81737],[-104.83483,38.82],[-104.83515,38.82027],[-104.83554,38.82074],[-104.83583,38.82119],[-104.83602,38.82164],[-104.83616,38.82236],[-104.83616,38.82286],[-104.83609,38.82342],[-104.83416,38.83108],[-104.83396,38.83147],[-104.83364,38.8319],[-104.83316,38.83237],[-104.83196,38.83338],[-104.83129,38.83408],[-104.83081,38.83472],[-104.83039,38.83552],[-104.83019,38.83626],[-104.83006,38.83734],[-104.82991,38.84017],[-104.8299,38.84162],[-104.82982,38.84178],[-104.83014,38.84371],[-104.83078,38.847],[-104.83091,38.84748],[-104.83159,38.84943],[-104.83177,38.85012],[-104.83203,38.85137],[-104.83219,38.85229],[-104.83232,38.85374],[-104.83252,38.85464],[-104.83381,38.85757],[-104.83402,38.85858],[-104.83408,38.85929],[-104.83402,38.8608],[-104.83393,38.86162],[-104.83342,38.86362],[-104.83326,38.86473],[-104.83318,38.86486],[-104.83325,38.86875],[-104.83342,38.86988],[-104.83569,38.88008],[-104.8358,38.88124],[-104.8358,38.88251],[-104.83577,38.88306],[-104.83554,38.88472],[-104.83522,38.88581],[-104.83486,38.88681],[-104.83429,38.88802],[-104.83161,38.89316],[-104.83113,38.89419],[-104.82984,38.89748],[-104.82898,38.89939],[-104.82649,38.90544],[-104.8261,38.90658],[-104.82539,38.908],[-104.82504,38.90858],[-104.8245,38.90932],[-104.82392,38.90998],[-104.82283,38.91101],[-104.8181,38.91453],[-104.81697,38.91548],[-104.8164,38.91608],[-104.81588,38.91677],[-104.81527,38.9178],[-104.81495,38.91859],[-104.81459,38.91994],[-104.81301,38.92919],[-104.81301,38.92958],[-104.8124,38.93331],[-104.81223,38.93558],[-104.81234,38.93684],[-104.81247,38.93764],[-104.81347,38.94195],[-104.81388,38.94403],[-104.81388,38.94521],[-104.81378,38.94586],[-104.81334,38.94718],[-104.81286,38.94807],[-104.81242,38.9487],[-104.81189,38.94928],[-104.81098,38.95008],[-104.81021,38.95061],[-104.80526,38.95354],[-104.80448,38.95404],[-104.80339,38.95492],[-104.80268,38.95565],[-104.8021,38.95639],[-104.80161,38.95718],[-104.80124,38.95803],[-104.80107,38.95863],[-104.80095,38.9593],[-104.80091,38.95985],[-104.80091,38.96067],[-104.80104,38.96149],[-104.80135,38.96247],[-104.80225,38.9644],[-104.80574,38.97131],[-104.81233,38.98466],[-104.81832,39.00104],[-104.81881,39.00215],[-104.81971,39.00373],[-104.83078,39.02214],[-104.83384,39.02747],[-104.83567,39.03051],[-104.8383,39.03459],[-104.84293,39.04235],[-104.84745,39.05022],[-104.84861,39.05231],[-104.84942,39.05353],[-104.85526,39.06333],[-104.85591,39.06475],[-104.85611,39.06533],[-104.85639,39.06625],[-104.85864,39.07566],[-104.85958,39.07983],[-104.86306,39.09441],[-104.86354,39.09666],[-104.86364,39.09796],[-104.86415,39.10207],[-104.86541,39.11351],[-104.86569,39.11624],[-104.8657,39.11703],[-104.8656,39.11822],[-104.86544,39.11943],[-104.86245,39.13732],[-104.86177,39.14109],[-104.86139,39.1426],[-104.86064,39.14482],[-104.85173,39.16869],[-104.85109,39.17052],[-104.8505,39.17277],[-104.85018,39.17462],[-104.85001,39.17676],[-104.85002,39.17913],[-104.85028,39.1879],[-104.85035,39.18938],[-104.85051,39.19026],[-104.85086,39.19175],[-104.8517,39.19372],[-104.85209,39.19442],[-104.85813,39.20385],[-104.85862,39.20455],[-104.85913,39.20513],[-104.85958,39.20558],[-104.86083,39.2065],[-104.86704,39.21015],[-104.87254,39.21345],[-104.87419,39.21474],[-104.87564,39.21601],[-104.87686,39.21715],[-104.87766,39.21822],[-104.87815,39.21913],[-104.87843,39.21995],[-104.87864,39.22079],[-104.87872,39.22172],[-104.8787,39.22222],[-104.87731,39.23317],[-104.87725,39.23405],[-104.87725,39.24037],[-104.87751,39.24157],[-104.87773,39.24219],[-104.87799,39.24276],[-104.87838,39.24338],[-104.87873,39.24388],[-104.87962,39.24486],[-104.88311,39.24789],[-104.88461,39.24966],[-104.88522,39.25054],[-104.88583,39.2513],[-104.88646,39.25223],[-104.89131,39.25867],[-104.89234,39.26015],[-104.89382,39.26265],[-104.8952,39.26538],[-104.89547,39.26602],[-104.89633,39.2686],[-104.89685,39.2709],[-104.89745,39.27529],[-104.89755,39.27664],[-104.89749,39.27743],[-104.89572,39.28849],[-104.89544,39.28942],[-104.89495,39.2905],[-104.89125,39.29687],[-104.89031,39.29879],[-104.87132,39.35121],[-104.87084,39.35226],[-104.8686,39.35644],[-104.86817,39.35739],[-104.86696,39.361],[-104.86673,39.36201],[-104.86583,39.36515],[-104.86434,39.36961],[-104.86261,39.37534],[-104.86216,39.37635],[-104.86142,39.37765],[-104.86089,39.37892],[-104.86057,39.37999],[-104.86041,39.38111],[-104.86035,39.38235],[-104.86042,39.38391],[-104.86039,39.38616],[-104.86,39.3885],[-104.85974,39.39032],[-104.85964,39.39205],[-104.85974,39.39408],[-104.86,39.3959],[-104.8606,39.39786],[-104.86405,39.40605],[-104.86551,39.409],[-104.86781,39.41257],[-104.8721,39.41885],[-104.87451,39.42248],[-104.87619,39.42485],[-104.87834,39.4281],[-104.87892,39.42929],[-104.87906,39.42993],[-104.87918,39.4308],[-104.87917,39.43201],[-104.87905,39.43301],[-104.87875,39.43495],[-104.87854,39.43574],[-104.87819,39.43669],[-104.8779,39.43729],[-104.87619,39.4402],[-104.87592,39.44083],[-104.87567,39.44163],[-104.87552,39.4425],[-104.87547,39.44381],[-104.87551,39.44998],[-104.87531,39.45386],[-104.87497,39.45682],[-104.87291,39.469],[-104.87252,39.47163],[-104.87236,39.4737],[-104.87229,39.47592],[-104.87235,39.47914],[-104.87226,39.48568],[-104.87236,39.48722],[-104.87286,39.49031],[-104.87429,39.50059],[-104.87432,39.5014],[-104.87429,39.50215],[-104.87413,39.50318],[-104.87391,39.50405],[-104.87367,39.50471],[-104.87332,39.50545],[-104.87101,39.50983],[-104.86914,39.51372],[-104.86785,39.51619],[-104.86734,39.51736],[-104.86712,39.5181],[-104.86708,39.5187],[-104.86715,39.5214],[-104.8674,39.52613],[-104.86837,39.53659],[-104.86894,39.54317],[-104.86907,39.54518],[-104.86962,39.55085],[-104.87145,39.56185],[-104.87139,39.56195],[-104.87284,39.57049],[-104.87348,39.57292],[-104.87496,39.57753],[-104.87544,39.5787],[-104.87583,39.57946],[-104.88317,39.59214],[-104.8869,39.5987],[-104.89083,39.60546],[-104.89208,39.60751],[-104.89289,39.60903],[-104.8944,39.61154],[-104.89482,39.61237],[-104.89936,39.6203],[-104.90004,39.62142],[-104.90367,39.62775],[-104.90442,39.62899],[-104.9055,39.63106],[-104.9063,39.63306],[-104.90705,39.63467],[-104.90772,39.63571],[-104.90989,39.63869],[-104.9132,39.64427],[-104.91648,39.64997],[-104.91745,39.65156],[-104.91831,39.65319],[-104.92247,39.66264],[-104.92318,39.66413],[-104.92384,39.66518],[-104.92936,39.67321],[-104.93128,39.67575],[-104.93521,39.68019],[-104.93579,39.68075],[-104.93662,39.68138],[-104.93759,39.68199],[-104.93865,39.68251],[-104.94016,39.68302],[-104.94532,39.68429],[-104.94796,39.68473],[-104.94899,39.68483],[-104.95094,39.68491],[-104.96029,39.68489],[-104.96144,39.68494],[-104.96256,39.6851],[-104.96341,39.68531],[-104.96534,39.68608],[-104.97328,39.68996],[-104.9746,39.69065],[-104.97534,39.69109],[-104.97641,39.69187],[-104.97895,39.69418],[-104.98278,39.69747],[-104.98345,39.69812],[-104.98497,39.69944],[-104.98738,39.70143],[-104.98883,39.70254],[-104.98932,39.70283],[-104.99002,39.70314],[-104.99379,39.70431],[-104.99414,39.70447],[-104.99482,39.70492],[-104.99532,39.70547],[-104.99619,39.70677],[-105.00066,39.71405],[-105.00067,39.71416],[-105.00173,39.71572],[-105.00254,39.71651],[-105.00552,39.71859],[-105.00924,39.72198],[-105.01148,39.72367],[-105.01242,39.72462],[-105.01335,39.72584],[-105.0136,39.72626],[-105.01407,39.72726],[-105.01435,39.72797],[-105.01493,39.72969],[-105.01518,39.73054],[-105.01538,39.73101],[-105.01557,39.73175],[-105.01557,39.7327],[-105.01534,39.73381],[-105.01516,39.73432],[-105.01412,39.73659],[-105.0139,39.73757],[-105.01383,39.73809],[-105.01384,39.73909],[-105.01399,39.74058],[-105.01426,39.74145],[-105.01468,39.74214],[-105.01619,39.74367],[-105.01722,39.74465],[-105.01767,39.74523],[-105.01802,39.74602],[-105.01814,39.74665],[-105.01811,39.74737],[-105.01802,39.74782],[-105.01657,39.75132],[-105.01616,39.75202],[-105.0158,39.75252],[-105.0148,39.75355],[-105.0141,39.75413],[-105.00911,39.75775],[-105.00602,39.75989],[-105.00344,39.76158],[-105.00273,39.76229],[-105.00183,39.76342],[-105.00167,39.76353],[-105.00093,39.76462],[-105.00029,39.76541],[-104.99963,39.76594],[-104.99883,39.76639],[-104.99443,39.76818],[-104.99389,39.76842],[-104.99299,39.76894],[-104.99223,39.76948],[-104.99147,39.77016],[-104.99076,39.77096],[-104.99018,39.77182],[-104.98979,39.77267],[-104.98941,39.77384],[-104.98925,39.77486],[-104.98921,39.77841],[-104.98915,39.77896],[-104.98912,39.78657],[-104.98902,39.78809],[-104.9888,39.78936],[-104.98819,39.792],[-104.98709,39.79629],[-104.98605,39.79869],[-104.98364,39.80334],[-104.98317,39.80452],[-104.98293,39.80551],[-104.98281,39.80685],[-104.98278,39.81166],[-104.98281,39.8123],[-104.98252,39.82151],[-104.98235,39.82281],[-104.98222,39.82331],[-104.98155,39.82535],[-104.98133,39.82619],[-104.98124,39.82685],[-104.98123,39.82757],[-104.98133,39.82849],[-104.98146,39.8291],[-104.98274,39.83216],[-104.98319,39.83377],[-104.98327,39.83433],[-104.98365,39.84005],[-104.98385,39.84164],[-104.98709,39.85652],[-104.98734,39.85786],[-104.98741,39.85868],[-104.98744,39.85974],[-104.98741,39.87828],[-104.98745,39.88333],[-104.98741,39.88917],[-104.98745,39.8973],[-104.9875,39.89793],[-104.98767,39.89917],[-104.98815,39.90092],[-104.9886,39.90206],[-104.9897,39.90441],[-104.99011,39.90554],[-104.99047,39.90737],[-104.9906,39.90842],[-104.99062,39.90911],[-104.99057,39.91019],[-104.99044,39.9113],[-104.99018,39.91238],[-104.98976,39.91376],[-104.98857,39.9164],[-104.98809,39.91772],[-104.98776,39.91933],[-104.98761,39.92095],[-104.98764,39.92868],[-104.98799,39.95898],[-104.98802,39.97742],[-104.98799,39.98429],[-104.98795,39.98494],[-104.9876,39.98662],[-104.98725,39.98769],[-104.98683,39.98873],[-104.98226,39.9971],[-104.98095,39.99964],[-104.98069,40.00034],[-104.98058,40.00093],[-104.98046,40.00169],[-104.98042,40.00257],[-104.98053,40.01079],[-104.98052,40.01509],[-104.9804,40.01855],[-104.98045,40.02282],[-104.98042,40.03789],[-104.98024,40.05878],[-104.98029,40.07428],[-104.9802,40.09318],[-104.98018,40.11053],[-104.98016,40.11209],[-104.97973,40.11759],[-104.97972,40.12221],[-104.97982,40.12431],[-104.98008,40.12717],[-104.98013,40.12867],[-104.98008,40.14448],[-104.98005,40.14563],[-104.97985,40.14767],[-104.97886,40.15425],[-104.97876,40.15556],[-104.9787,40.15713],[-104.97878,40.16117],[-104.9794,40.16717],[-104.97972,40.17094],[-104.97953,40.17496],[-104.97956,40.17644],[-104.97952,40.17672],[-104.97959,40.17839],[-104.97991,40.18223],[-104.98001,40.18487],[-104.97985,40.21826],[-104.98001,40.23915],[-104.98013,40.26211],[-104.97995,40.29084],[-104.97997,40.29943],[-104.97998,40.30041],[-104.98024,40.30238],[-104.98069,40.30411],[-104.98081,40.30484],[-104.9809,40.30622],[-104.98082,40.30762],[-104.98068,40.3086],[-104.9802,40.31065],[-104.98011,40.31119],[-104.98004,40.31238],[-104.98001,40.33469],[-104.98007,40.34186],[-104.98018,40.34365],[-104.98135,40.35239],[-104.98161,40.35414],[-104.98203,40.35588],[-104.98233,40.35673],[-104.98371,40.35977],[-104.98529,40.36291],[-104.98782,40.36821],[-104.99269,40.37675],[-104.99311,40.37783],[-104.99323,40.37839],[-104.9933,40.3792],[-104.99315,40.39524],[-104.99324,40.40156],[-104.99318,40.40343],[-104.99295,40.40757],[-104.99263,40.41449],[-104.99247,40.42361],[-104.99221,40.43267],[-104.9922,40.43619],[-104.99208,40.43998],[-104.99191,40.45035],[-104.99154,40.50236],[-104.99157,40.50919],[-104.99237,40.52755],[-104.99249,40.52846],[-104.99398,40.53401],[-104.99662,40.5425],[-104.99929,40.55202],[-105,40.55416],[-105.00087,40.55793],[-105.00116,40.56016],[-105.00121,40.56111],[-105.00119,40.57244],[-105.00109,40.58359],[-105.00116,40.58633],[-105.00112,40.58866],[-105.00122,40.60448],[-105.00115,40.60668],[-105.00108,40.61339],[-105.00112,40.62422],[-105.00054,40.63953],[-105.00071,40.65581],[-105.00074,40.66793],[-105.00031,40.69469],[-105.00006,40.69635],[-104.99977,40.69747],[-104.99777,40.70275],[-104.99437,40.71141],[-104.99408,40.71249],[-104.99387,40.7136],[-104.99376,40.71476],[-104.99208,40.75959],[-104.99202,40.7603],[-104.99189,40.76102],[-104.99137,40.76302],[-104.98963,40.76826],[-104.98271,40.78986],[-104.98252,40.79032],[-104.97087,40.8264],[-104.9674,40.83702],[-104.96681,40.83914],[-104.96495,40.84476],[-104.96449,40.846],[-104.96343,40.8494],[-104.94793,40.89603],[-104.94735,40.89724],[-104.9468,40.8982],[-104.94185,40.90541],[-104.93991,40.90808],[-104.9384,40.91046],[-104.9364,40.91326],[-104.93576,40.91424],[-104.93473,40.91618],[-104.93427,40.91748],[-104.93335,40.92065],[-104.93142,40.92672],[-104.92445,40.94937],[-104.92417,40.9505],[-104.92398,40.95201],[-104.92395,40.9528],[-104.92408,40.95811],[-104.92394,40.95922],[-104.92357,40.96078],[-104.92336,40.96147],[-104.91677,40.97666],[-104.91626,40.97774],[-104.90779,40.9944],[-104.9073,40.99562],[-104.9067,40.99821]]},
"properties":{"name":"Interstate 25 (US 87) in Colorado","stroke":"#cc0000","stroke-opacity":1,"stroke-width":3}}



]}