{"type":"FeatureCollection","features":[{"type":"Feature","properties":{"@id":"way/20579966","name":"White Street","ref":"US 11 BUS","routeRef":"US 11 BUS","routeTensDigit":1,"routeOnesDigit":"odd"},"geometry":{"type":"LineString","coordinates":[[-79.4473357,37.7814702],[-79.446828,37.781081],[-79.446744,37.781018],[-79.4465926,37.7809272]]},"id":"way/20579966"},{"type":"Feature","properties":{"@id":"way/20580019","name":"South Jefferson Street","ref":"US 11 BUS","routeRef":"US 11 BUS","routeTensDigit":1,"routeOnesDigit":"odd"},"geometry":{"type":"LineString","coordinates":[[-79.44275,37.785601],[-79.442787,37.785567],[-79.4429758,37.7853932],[-79.44315,37.785233],[-79.443246,37.785149],[-79.4436953,37.7847512],[-79.443743,37.784709],[-79.443775,37.7846809],[-79.4440719,37.7844196],[-79.4442322,37.7842785],[-79.4443892,37.7841403],[-79.4445174,37.7840274],[-79.444744,37.783828],[-79.445152,37.783472],[-79.445545,37.783114],[-79.4457647,37.7829106],[-79.446113,37.78262],[-79.446698,37.782079],[-79.446863,37.781924],[-79.4473357,37.7814702]]},"id":"way/20580019"},{"type":"Feature","properties":{"@id":"way/20580269","name":"North Main Street","ref":"US 11 BUS","routeRef":"US 11 BUS","routeTensDigit":1,"routeOnesDigit":"odd"},"geometry":{"type":"LineString","coordinates":[[-79.4305717,37.7894625],[-79.4301277,37.7894892],[-79.4300265,37.7894976],[-79.4297346,37.7895218],[-79.4296291,37.7895552]]},"id":"way/20580269"},{"type":"Feature","properties":{"@id":"way/20581049","name":"North Main Street","ref":"US 11 BUS","routeRef":"US 11 BUS","routeTensDigit":1,"routeOnesDigit":"odd"},"geometry":{"type":"LineString","coordinates":[[-79.4419599,37.785049],[-79.4419119,37.7850919],[-79.44158,37.785388],[-79.4414796,37.7854843],[-79.4412465,37.7857077],[-79.4411808,37.7857707],[-79.4410276,37.7859175],[-79.4409998,37.7859442],[-79.4409488,37.7859952],[-79.4407985,37.7861453],[-79.4407247,37.7862772],[-79.4406669,37.7864032],[-79.440615,37.7865352],[-79.4405704,37.7866484],[-79.4405603,37.786674],[-79.4405397,37.7867485]]},"id":"way/20581049"},{"type":"Feature","properties":{"@id":"way/20581328","name":"North Jefferson Street","ref":"US 11 BUS","routeRef":"US 11 BUS","routeTensDigit":1,"routeOnesDigit":"odd"},"geometry":{"type":"LineString","coordinates":[[-79.4402541,37.7873241],[-79.4403733,37.7872512],[-79.4403879,37.7872423],[-79.4404905,37.7871621],[-79.4406226,37.7871125],[-79.4409778,37.7870332]]},"id":"way/20581328"},{"type":"Feature","properties":{"@id":"way/20581493","name":"South Main Street","ref":"US 11 BUS","routeRef":"US 11 BUS","routeTensDigit":1,"routeOnesDigit":"odd"},"geometry":{"type":"LineString","coordinates":[[-79.4477556,37.7697869],[-79.447865,37.7703859],[-79.4479036,37.7705975],[-79.4479431,37.7707806],[-79.4479475,37.7708011],[-79.4479807,37.7709513],[-79.448047,37.7711714],[-79.448077,37.7712539],[-79.4480998,37.771332],[-79.448189,37.7715281],[-79.4482512,37.77164],[-79.448414,37.7719028],[-79.4485268,37.7720527],[-79.4486652,37.7722354],[-79.4487614,37.7723522],[-79.4489324,37.7725345],[-79.4490824,37.7726817],[-79.4493587,37.7729344],[-79.4495957,37.773151],[-79.4497564,37.7733162],[-79.4498301,37.7733952],[-79.449893,37.7734714],[-79.4500022,37.7736273],[-79.4500708,37.7737629],[-79.4501445,37.7739452],[-79.4502033,37.7741281],[-79.4502212,37.7741988],[-79.4502386,37.7742811],[-79.4502498,37.7743593],[-79.4502555,37.7744686],[-79.450259,37.774602],[-79.4502429,37.7747923],[-79.450205,37.774941],[-79.4501305,37.7751134],[-79.4497728,37.7758136],[-79.449404,37.7765299],[-79.449168,37.7769939],[-79.4491072,37.7771053],[-79.448965,37.777406],[-79.4486993,37.777791],[-79.4485487,37.7780042],[-79.4483341,37.7783321],[-79.4480301,37.7787778],[-79.4476654,37.7793178],[-79.447367,37.779791],[-79.447289,37.779906],[-79.446839,37.780566],[-79.4465926,37.7809272]]},"id":"way/20581493"},{"type":"Feature","properties":{"@id":"way/51101601","name":"South Lee Highway","ref":"US 11 BUS","routeRef":"US 11 BUS","routeTensDigit":1,"routeOnesDigit":"odd"},"geometry":{"type":"LineString","coordinates":[[-79.4476684,37.7692763],[-79.4477178,37.7695658]]},"id":"way/51101601"},{"type":"Feature","properties":{"@id":"way/69022833","name":"North Main Street","ref":"US 11 BUS","routeRef":"US 11 BUS","routeTensDigit":1,"routeOnesDigit":"odd"},"geometry":{"type":"LineString","coordinates":[[-79.4402541,37.7873241],[-79.4402356,37.7873507],[-79.4401964,37.787404],[-79.4400839,37.7875178],[-79.440005,37.787582],[-79.4395335,37.7878587],[-79.4393985,37.7879379],[-79.439162,37.78808],[-79.439033,37.788141],[-79.4389843,37.7881608],[-79.438932,37.788182],[-79.438233,37.788433],[-79.437397,37.788721],[-79.4373161,37.788748],[-79.437202,37.788789],[-79.436338,37.789121]]},"id":"way/69022833"},{"type":"Feature","properties":{"@id":"way/69022836","name":"South Main Street","ref":"US 11 BUS","routeRef":"US 11 BUS","routeTensDigit":1,"routeOnesDigit":"odd"},"geometry":{"type":"LineString","coordinates":[[-79.4465926,37.7809272],[-79.4465745,37.7809434],[-79.446248,37.7812346],[-79.4459094,37.7815365],[-79.4457879,37.7816448],[-79.4453877,37.7820017],[-79.4450606,37.7822933],[-79.445011,37.7823376],[-79.4443764,37.7828932],[-79.4439688,37.7832669],[-79.4436683,37.7835348],[-79.4432172,37.7839371],[-79.443003,37.7841281],[-79.4429688,37.7841586],[-79.4429221,37.7842002],[-79.4427128,37.7843869],[-79.4425841,37.7845017],[-79.4424777,37.7845965],[-79.4420088,37.7850063],[-79.4419599,37.785049]]},"id":"way/69022836"},{"type":"Feature","properties":{"@id":"way/123302300","name":"North Main Street","ref":"US 11 BUS","routeRef":"US 11 BUS","routeTensDigit":1,"routeOnesDigit":"odd"},"geometry":{"type":"LineString","coordinates":[[-79.4291936,37.7904047],[-79.4292888,37.7903136],[-79.4294996,37.7901255],[-79.4296168,37.790021],[-79.4299649,37.7897103],[-79.4300929,37.78963],[-79.4301653,37.7895904],[-79.430248,37.7895536],[-79.4303496,37.7895169],[-79.4305717,37.7894625]]},"id":"way/123302300"},{"type":"Feature","properties":{"@id":"way/123302304","ref":"US 11 BUS","routeRef":"US 11 BUS","routeTensDigit":1,"routeOnesDigit":"odd"},"geometry":{"type":"LineString","coordinates":[[-79.4290009,37.7897596],[-79.4288354,37.7898586],[-79.4287381,37.7899485],[-79.4286579,37.7900558],[-79.4285775,37.7901596],[-79.4285031,37.7902847]]},"id":"way/123302304"},{"type":"Feature","properties":{"@id":"way/123302310","name":"North Main Street","ref":"US 11 BUS","routeRef":"US 11 BUS","routeTensDigit":1,"routeOnesDigit":"odd"},"geometry":{"type":"LineString","coordinates":[[-79.4295795,37.7895578],[-79.4295169,37.7895666],[-79.4294125,37.7895925],[-79.4293248,37.7896137],[-79.4292588,37.789634],[-79.4291652,37.7896701],[-79.4291004,37.7896955]]},"id":"way/123302310"},{"type":"Feature","properties":{"@id":"way/123302750","name":"North Main Street","ref":"US 11 BUS","routeRef":"US 11 BUS","routeTensDigit":1,"routeOnesDigit":"odd"},"geometry":{"type":"LineString","coordinates":[[-79.4284505,37.7910727],[-79.4285319,37.7910007],[-79.4287194,37.7908226],[-79.4290501,37.7905169],[-79.4291936,37.7904047]]},"id":"way/123302750"},{"type":"Feature","properties":{"@id":"way/356998691","name":"North Main Street","ref":"US 11 BUS","routeRef":"US 11 BUS","routeTensDigit":1,"routeOnesDigit":"odd"},"geometry":{"type":"LineString","coordinates":[[-79.434718,37.78958],[-79.4343508,37.7896081],[-79.4340114,37.789634],[-79.4334256,37.7896859],[-79.4332521,37.7896821],[-79.4330772,37.7896749],[-79.432984,37.789671],[-79.432055,37.7895931],[-79.431994,37.789588],[-79.431752,37.78955],[-79.4316722,37.7895348],[-79.431363,37.789476],[-79.431182,37.789446],[-79.43108,37.789437],[-79.430938,37.789437],[-79.430853,37.789444],[-79.4306349,37.7894561],[-79.4305717,37.7894625]]},"id":"way/356998691"},{"type":"Feature","properties":{"@id":"way/363535926","name":"North Main Street","ref":"US 11 BUS","routeRef":"US 11 BUS","routeTensDigit":1,"routeOnesDigit":"odd"},"geometry":{"type":"LineString","coordinates":[[-79.4405397,37.7867485],[-79.4404527,37.7869517],[-79.4404134,37.7870731],[-79.4402988,37.7872391],[-79.440294,37.7872482],[-79.4402541,37.7873241]]},"id":"way/363535926"},{"type":"Feature","properties":{"@id":"way/363535942","name":"North Jefferson Street","ref":"US 11 BUS","routeRef":"US 11 BUS","routeTensDigit":1,"routeOnesDigit":"odd"},"geometry":{"type":"LineString","coordinates":[[-79.4409778,37.7870332],[-79.441025,37.787026],[-79.4410515,37.7870172],[-79.4410617,37.7870139],[-79.441131,37.786991],[-79.441211,37.786953],[-79.441301,37.786897],[-79.441314,37.7868851]]},"id":"way/363535942"},{"type":"Feature","properties":{"@id":"way/363535943","name":"North Main Street","ref":"US 11 BUS","routeRef":"US 11 BUS","routeTensDigit":1,"routeOnesDigit":"odd"},"geometry":{"type":"LineString","coordinates":[[-79.4291004,37.7896955],[-79.4290009,37.7897596]]},"id":"way/363535943"},{"type":"Feature","properties":{"@id":"way/841532791","name":"South Lee Highway","ref":"US 11 BUS","routeRef":"US 11 BUS","routeTensDigit":1,"routeOnesDigit":"odd"},"geometry":{"type":"LineString","coordinates":[[-79.4477178,37.7695658],[-79.4477556,37.7697869]]},"id":"way/841532791"},{"type":"Feature","properties":{"@id":"way/1004793394","name":"North Main Street","ref":"US 11 BUS","routeRef":"US 11 BUS","routeTensDigit":1,"routeOnesDigit":"odd"},"geometry":{"type":"LineString","coordinates":[[-79.4278076,37.7915189],[-79.4282939,37.791201],[-79.4283864,37.7911234],[-79.4284505,37.7910727]]},"id":"way/1004793394"},{"type":"Feature","properties":{"@id":"way/1314754110","ref":"US 11 BUS","routeRef":"US 11 BUS","routeTensDigit":1,"routeOnesDigit":"odd"},"geometry":{"type":"LineString","coordinates":[[-79.4285031,37.7902847],[-79.4284765,37.7903929],[-79.4284245,37.7905683],[-79.42836,37.79075],[-79.4282444,37.7909637],[-79.4280799,37.79116],[-79.4278076,37.7915189]]},"id":"way/1314754110"},{"type":"Feature","properties":{"@id":"way/1323647361","name":"North Jefferson Street","ref":"US 11 BUS","routeRef":"US 11 BUS","routeTensDigit":1,"routeOnesDigit":"odd"},"geometry":{"type":"LineString","coordinates":[[-79.441314,37.7868851],[-79.4417195,37.7865148],[-79.441762,37.786476],[-79.4418181,37.7864247],[-79.441975,37.786281],[-79.4422264,37.7860602],[-79.4423084,37.7859876],[-79.442386,37.78592],[-79.4426978,37.7856467],[-79.44275,37.785601]]},"id":"way/1323647361"},{"type":"Feature","properties":{"@id":"way/1389130644","name":"North Main Street","ref":"US 11 BUS","routeRef":"US 11 BUS","routeTensDigit":1,"routeOnesDigit":"odd"},"geometry":{"type":"LineString","coordinates":[[-79.436338,37.789121],[-79.436098,37.789212],[-79.435624,37.789371],[-79.435127,37.789522],[-79.43499,37.78955],[-79.434815,37.789572],[-79.434718,37.78958]]},"id":"way/1389130644"},{"type":"Feature","properties":{"@id":"node/219055019"},"geometry":{"type":"Point","coordinates":[-79.4476684,37.7692763]},"id":"node/219055019"},{"type":"Feature","properties":{"@id":"node/220962866"},"geometry":{"type":"Point","coordinates":[-79.4419599,37.785049]},"id":"node/220962866"},{"type":"Feature","properties":{"@id":"node/220962906"},"geometry":{"type":"Point","coordinates":[-79.443743,37.784709]},"id":"node/220962906"},{"type":"Feature","properties":{"@id":"node/220967967"},"geometry":{"type":"Point","coordinates":[-79.437397,37.788721]},"id":"node/220967967"},{"type":"Feature","properties":{"@id":"node/220971875"},"geometry":{"type":"Point","coordinates":[-79.4429688,37.7841586]},"id":"node/220971875"},{"type":"Feature","properties":{"@id":"node/220972609"},"geometry":{"type":"Point","coordinates":[-79.435624,37.789371]},"id":"node/220972609"},{"type":"Feature","properties":{"@id":"node/220975631"},"geometry":{"type":"Point","coordinates":[-79.4443764,37.7828932]},"id":"node/220975631"},{"type":"Feature","properties":{"@id":"node/1375513254"},"geometry":{"type":"Point","coordinates":[-79.4278076,37.7915189]},"id":"node/1375513254"},{"type":"Feature","properties":{"@id":"node/9970931632"},"geometry":{"type":"Point","coordinates":[-79.4373161,37.788748]},"id":"node/9970931632"},{"type":"Feature","properties":{"@id":"node/9970931643"},"geometry":{"type":"Point","coordinates":[-79.4343508,37.7896081]},"id":"node/9970931643"},{"type":"Feature","properties":{"@id":"node/9970931644"},"geometry":{"type":"Point","coordinates":[-79.4330772,37.7896749]},"id":"node/9970931644"},{"type":"Feature","properties":{"@id":"node/10032724042"},"geometry":{"type":"Point","coordinates":[-79.4300265,37.7894976]},"id":"node/10032724042"},{"type":"Feature","properties":{"@id":"node/10032724043"},"geometry":{"type":"Point","coordinates":[-79.4294996,37.7901255]},"id":"node/10032724043"},{"type":"Feature","properties":{"@id":"node/13271501832"},"geometry":{"type":"Point","coordinates":[-79.443003,37.7841281]},"id":"node/13271501832"},{"type":"Feature","properties":{"@id":"node/13271501836"},"geometry":{"type":"Point","coordinates":[-79.4429221,37.7842002]},"id":"node/13271501836"},{"type":"Feature","properties":{"@id":"node/13657747869"},"geometry":{"type":"Point","coordinates":[-79.4426978,37.7856467]},"id":"node/13657747869"},{"type":"Feature","properties":{"@id":"node/13657747871"},"geometry":{"type":"Point","coordinates":[-79.442787,37.785567]},"id":"node/13657747871"},{"type":"Feature","properties":{"@id":"node/13657747881"},"geometry":{"type":"Point","coordinates":[-79.4418181,37.7864247]},"id":"node/13657747881"},{"type":"Feature","properties":{"@id":"node/13657747885"},"geometry":{"type":"Point","coordinates":[-79.4417195,37.7865148]},"id":"node/13657747885"},{"type":"Feature","properties":{"@id":"node/13657841017"},"geometry":{"type":"Point","coordinates":[-79.4420088,37.7850063]},"id":"node/13657841017"},{"type":"Feature","properties":{"@id":"node/13657841019"},"geometry":{"type":"Point","coordinates":[-79.4419119,37.7850919]},"id":"node/13657841019"},{"type":"Feature","properties":{"@id":"node/13657841045"},"geometry":{"type":"Point","coordinates":[-79.4410276,37.7859175]},"id":"node/13657841045"},{"type":"Feature","properties":{"@id":"node/13657841046"},"geometry":{"type":"Point","coordinates":[-79.4409488,37.7859952]},"id":"node/13657841046"},{"type":"Feature","properties":{"@id":"node/13657841047"},"geometry":{"type":"Point","coordinates":[-79.4405704,37.7866484]},"id":"node/13657841047"},{"type":"Feature","properties":{"@id":"node/13657841048"},"geometry":{"type":"Point","coordinates":[-79.4410515,37.7870172]},"id":"node/13657841048"},{"type":"Feature","properties":{"@id":"node/13657841049"},"geometry":{"type":"Point","coordinates":[-79.4403733,37.7872512]},"id":"node/13657841049"},{"type":"Feature","properties":{"@id":"node/13657841050"},"geometry":{"type":"Point","coordinates":[-79.440294,37.7872482]},"id":"node/13657841050"},{"type":"Feature","properties":{"@id":"node/13663823936"},"geometry":{"type":"Point","coordinates":[-79.4436953,37.7847512]},"id":"node/13663823936"},{"type":"Feature","properties":{"@id":"node/13663823937"},"geometry":{"type":"Point","coordinates":[-79.443775,37.7846809]},"id":"node/13663823937"},{"type":"Feature","properties":{"ref":"US 206 BYP","routeRef":"US 206 BYP","routeTensDigit":0,"routeOnesDigit":"even"},"geometry":{"type":"MultiLineString","coordinates":[[[-74.6563339,40.4756027],[-74.6562051,40.4756843],[-74.6561477,40.4757941],[-74.6556855,40.4767915],[-74.655573,40.4770278],[-74.6554358,40.4772593],[-74.6552533,40.4775163],[-74.6551246,40.4776749],[-74.6549739,40.4778222],[-74.654863,40.477938],[-74.6546363,40.4781385],[-74.6544784,40.4782491],[-74.6541024,40.4785206],[-74.6537563,40.4786935],[-74.6534719,40.4788102],[-74.6532279,40.4789007],[-74.6530085,40.4789725],[-74.6527251,40.4790339],[-74.6525505,40.4790695],[-74.6523018,40.4791136],[-74.6521403,40.4791318],[-74.6518527,40.4791524],[-74.6516179,40.4791642],[-74.6514519,40.4791581],[-74.6513074,40.479152],[-74.6510505,40.4791316],[-74.6498882,40.4789887],[-74.6492587,40.4789113],[-74.6484488,40.478846],[-74.6480061,40.4788474],[-74.6475958,40.4788663],[-74.6471773,40.4789317],[-74.6467965,40.4790173],[-74.6463191,40.4791561],[-74.6459899,40.4792813],[-74.6457182,40.4793846],[-74.6453427,40.4795396],[-74.6452461,40.4795935],[-74.6450209,40.4797192],[-74.6449038,40.479791],[-74.6446615,40.4799395],[-74.6443879,40.4801435],[-74.6440902,40.4803857],[-74.6439285,40.4805172],[-74.6431196,40.4813759],[-74.6423948,40.4821454],[-74.642027,40.4825711],[-74.6418776,40.482744],[-74.6415144,40.4832088],[-74.6411365,40.4837197],[-74.6408533,40.4841312],[-74.6407568,40.4842705],[-74.6404205,40.4848491],[-74.6401669,40.4853479],[-74.6400387,40.4856274],[-74.6398397,40.4861006],[-74.6397385,40.4863405],[-74.6395382,40.4869338],[-74.6394658,40.4871888],[-74.6393432,40.487598],[-74.6391735,40.4882355],[-74.6390613,40.4886358],[-74.6388769,40.4893398],[-74.6384792,40.4908822],[-74.6383467,40.4913977],[-74.6382397,40.491744],[-74.6380105,40.4923775],[-74.6379554,40.4925068],[-74.63789,40.492675],[-74.6377535,40.4929816],[-74.6374694,40.4935348],[-74.6371194,40.4941537],[-74.636866,40.4945516],[-74.636704,40.4948171],[-74.6360253,40.4959292],[-74.6359914,40.4959893],[-74.6357386,40.4964377],[-74.6354548,40.4969238],[-74.6349908,40.4978479],[-74.6348781,40.4980903],[-74.6347371,40.4985687],[-74.6345547,40.4992298],[-74.6345075,40.4996253],[-74.6344511,40.5000364],[-74.634445,40.5002745],[-74.6344561,40.5004918],[-74.6344853,40.5008532],[-74.6346373,40.5021602],[-74.6346944,40.5027184],[-74.6348379,40.5038669],[-74.634929,40.5045958],[-74.6347819,40.5058829],[-74.6344737,40.5070354],[-74.6341078,40.5078623],[-74.6339947,40.5081179],[-74.6337148,40.5086511]],[[-74.6338934,40.5086816],[-74.6341449,40.5081937],[-74.6341991,40.5080887],[-74.6347845,40.5065794],[-74.6349718,40.5057489],[-74.6350571,40.5048042],[-74.6348638,40.5027079],[-74.6348066,40.5021495],[-74.6346547,40.5008435],[-74.6346258,40.5004853],[-74.6346149,40.5002732],[-74.6346209,40.5000444],[-74.6346766,40.4996378],[-74.634723,40.499249],[-74.6347713,40.499074],[-74.6348014,40.4989649],[-74.6349031,40.4985961],[-74.6349506,40.4984349],[-74.6350417,40.498126],[-74.6350986,40.4979783],[-74.6351445,40.4978845],[-74.6355954,40.4969679],[-74.6358779,40.496484],[-74.6361642,40.4959763],[-74.63661,40.4952358],[-74.6369718,40.4946348],[-74.6372039,40.4942251],[-74.6375922,40.4935722],[-74.6378649,40.4930209],[-74.6379946,40.4927115],[-74.6380666,40.4925404],[-74.638123,40.4924039],[-74.6382479,40.4920786],[-74.6383531,40.4917651],[-74.638535,40.4911901],[-74.638599,40.4909044],[-74.6390135,40.4892495],[-74.6392084,40.4885432],[-74.6392702,40.4882865],[-74.6394507,40.4876189],[-74.6395702,40.4871997],[-74.6396568,40.4869524],[-74.6398432,40.4863691],[-74.6399425,40.4861265],[-74.6401512,40.4856543],[-74.6403034,40.4853137],[-74.6405263,40.4848856],[-74.6407572,40.4844737],[-74.6409463,40.4841829],[-74.6410903,40.4839687],[-74.6412803,40.4837014],[-74.6416189,40.4832546],[-74.6419828,40.4828042],[-74.6425131,40.4822058],[-74.6429913,40.4816553],[-74.6431681,40.4814737],[-74.6432164,40.481424],[-74.6434833,40.4811497],[-74.6438642,40.4807583],[-74.6440692,40.4805476],[-74.6442285,40.4804303],[-74.6447204,40.480068],[-74.6448787,40.4799578],[-74.6450531,40.4798518],[-74.6452087,40.4797641],[-74.6454285,40.47966],[-74.6456431,40.4795743],[-74.6458309,40.4795029],[-74.6463646,40.4793112],[-74.6467912,40.4791745],[-74.647054,40.4791051],[-74.6472659,40.4790643],[-74.6474912,40.4790377],[-74.6477219,40.4790173],[-74.647974,40.4790132],[-74.6482609,40.4790133],[-74.6485104,40.4790132],[-74.6489745,40.47905],[-74.649162,40.4790677],[-74.6498133,40.4791294],[-74.6521233,40.4793481],[-74.6522777,40.4793533],[-74.6524,40.4793503],[-74.6526694,40.4793359],[-74.6529806,40.4792992],[-74.6533024,40.4792339],[-74.6535868,40.4791564],[-74.6538335,40.4790748],[-74.6540317,40.4789953],[-74.6541768,40.4789279],[-74.6543753,40.4788177],[-74.6545524,40.4787035],[-74.654724,40.4785809],[-74.6548152,40.4785158],[-74.6549869,40.4783934],[-74.6551156,40.4782709],[-74.6552407,40.478146],[-74.65534,40.478039]]]}},{"type":"Feature","properties":{"@id":"relation/1943874","name":"US 223 Business (Adrian, MI)","ref":"US 223 BUS","routeRef":"US 223 BUS","routeTensDigit":2,"routeOnesDigit":"odd"},"geometry":{"type":"LineString","coordinates":[[-84.0731362,41.9045935],[-84.0730395,41.9045538],[-84.0729993,41.9045478],[-84.0729617,41.9045478],[-84.0729242,41.9045598],[-84.0728974,41.9045818],[-84.0728625,41.9046137],[-84.0728518,41.9046437],[-84.0728464,41.9046796],[-84.0728518,41.9047195],[-84.0728695,41.904785],[-84.0730508,41.9049647],[-84.0731748,41.9050632],[-84.0732412,41.9051054],[-84.0732837,41.905174],[-84.0732971,41.905204],[-84.0733051,41.9052419],[-84.0733051,41.9052778],[-84.0732998,41.9053118],[-84.0732837,41.9053357],[-84.0732622,41.9053477],[-84.0732193,41.905365],[-84.0731495,41.9053785],[-84.0729621,41.9054147],[-84.0726937,41.9054498],[-84.071996,41.9055361],[-84.0719,41.905548],[-84.071656,41.905545],[-84.0714705,41.905546],[-84.0709891,41.9055486],[-84.0703099,41.9055513],[-84.070122,41.905552],[-84.069813,41.905549],[-84.0697261,41.9055494],[-84.0696932,41.9055495],[-84.069255,41.905548],[-84.0692333,41.9055476],[-84.069019,41.905544],[-84.068712,41.905524],[-84.0684118,41.9054984],[-84.0683954,41.9054968],[-84.068029,41.905446],[-84.0679012,41.9054246],[-84.0678577,41.9054173],[-84.067802,41.905408],[-84.067549,41.905351],[-84.0675175,41.9053442],[-84.0672511,41.9052874],[-84.067143,41.905263],[-84.066792,41.905161],[-84.066418,41.90503],[-84.0663056,41.9049876],[-84.0661742,41.904938],[-84.065999,41.904869],[-84.0656505,41.9047125],[-84.065429,41.904613],[-84.0652635,41.9045306],[-84.0652027,41.9045004],[-84.0648982,41.9043489],[-84.064601,41.9042061],[-84.064145,41.903987],[-84.0641171,41.9039741],[-84.0633944,41.9036407],[-84.0633138,41.9036028],[-84.0628805,41.9033989],[-84.0625178,41.9032283],[-84.062175,41.903067],[-84.0617401,41.9028679],[-84.0611376,41.9025919],[-84.060784,41.90243],[-84.060378,41.902224],[-84.0602914,41.9021808],[-84.0588546,41.9014623],[-84.0584981,41.9012863],[-84.0573369,41.9007376],[-84.056842,41.9005038],[-84.0559675,41.9000906],[-84.055533,41.899908],[-84.055426,41.899892],[-84.055242,41.89986],[-84.055006,41.899847],[-84.053634,41.899859],[-84.0528386,41.8998777],[-84.0522945,41.8998905],[-84.050522,41.899932],[-84.050275,41.899944],[-84.049912,41.8999505],[-84.0495924,41.8999562],[-84.0495572,41.8999568],[-84.0493124,41.8999611],[-84.048871,41.899969],[-84.047615,41.8999916],[-84.0467419,41.9000074],[-84.0461504,41.900018],[-84.0459473,41.9000217],[-84.045542,41.900029],[-84.0453772,41.9000287],[-84.0451358,41.9000284],[-84.044888,41.900028],[-84.044585,41.900023],[-84.044384,41.8999898],[-84.044016,41.899929],[-84.043361,41.899809],[-84.0430299,41.8997452],[-84.042878,41.899716],[-84.0425631,41.8996622],[-84.042234,41.899606],[-84.0421413,41.8995937],[-84.0418714,41.8995548],[-84.041593,41.899578],[-84.041297,41.89962],[-84.0412277,41.8995003],[-84.0411004,41.8992805],[-84.0409625,41.8990357],[-84.0407672,41.8986527],[-84.0406975,41.8985726],[-84.040559,41.898478],[-84.0404196,41.8984202],[-84.0385612,41.8978792],[-84.0380271,41.8977067],[-84.0373872,41.8975001],[-84.0380143,41.8970286],[-84.0388122,41.8964286],[-84.0390469,41.89624],[-84.0391786,41.896132],[-84.0393394,41.8959882],[-84.0393684,41.8959611],[-84.0394284,41.8958889],[-84.0395899,41.895643],[-84.039833,41.895289],[-84.040255,41.894612],[-84.041125,41.89321],[-84.041417,41.892735],[-84.041699,41.892269],[-84.042463,41.89108],[-84.042724,41.890664],[-84.0429694,41.8902767],[-84.043045,41.890156],[-84.043116,41.890035],[-84.043181,41.889904],[-84.0431837,41.8898973],[-84.04324,41.889759],[-84.043292,41.889637],[-84.043356,41.889438],[-84.043408,41.889313],[-84.043458,41.889127],[-84.043486,41.888912],[-84.043499,41.8887429],[-84.043505,41.888665],[-84.0435042,41.8884383],[-84.0434985,41.8880434],[-84.0434866,41.8878604],[-84.043483,41.887805],[-84.0434748,41.8874659],[-84.0434601,41.8867786],[-84.0434467,41.886155],[-84.0434277,41.8857383],[-84.0434147,41.8853641],[-84.0434076,41.8851591],[-84.0433748,41.8842142],[-84.0433673,41.8839302],[-84.043357,41.8835412],[-84.043344,41.8830496],[-84.0433372,41.8827949],[-84.0433312,41.8825687],[-84.0433277,41.8824367],[-84.0433199,41.8821404],[-84.043307,41.881828],[-84.0432923,41.8813871],[-84.0432762,41.8809043],[-84.0432584,41.8803681],[-84.0432441,41.8797835],[-84.0432371,41.8795209],[-84.0432362,41.8794864],[-84.0432321,41.8793227],[-84.0432261,41.8791878],[-84.04321,41.878828],[-84.0432096,41.8788071],[-84.0432081,41.8787197],[-84.0431983,41.878136],[-84.0431875,41.8776934],[-84.0431823,41.8774871],[-84.0431782,41.8773122],[-84.0431674,41.8768714],[-84.0431632,41.8766991],[-84.043161,41.8766092],[-84.0431543,41.8764249],[-84.0431487,41.8762711],[-84.0431409,41.8760566],[-84.0431317,41.8758031],[-84.043128,41.8757021],[-84.043125,41.8756193],[-84.0430982,41.8748813]],"bbox":[-84.0733051,41.8748813,-84.0373872,41.905552]},"id":1,"bbox":[-84.0733051,41.8748813,-84.0373872,41.905552]},{"type":"Feature","properties":{"@id":"relation/1943874","name":"US 223 Business (Adrian, MI)","ref":"US 223 BUS","routeRef":"US 223 BUS","routeTensDigit":2,"routeOnesDigit":"odd"},"geometry":{"type":"LineString","coordinates":[[-84.0719,41.905548],[-84.0719949,41.9055489],[-84.072787,41.905556],[-84.073009,41.905551],[-84.073149,41.905545],[-84.07329,41.905524],[-84.073388,41.905499],[-84.073607,41.905415],[-84.0736919,41.9053833]],"bbox":[-84.0736919,41.9053833,-84.0719,41.905556]},"id":1,"bbox":[-84.0736919,41.9053833,-84.0719,41.905556]}]}